{"type":"FeatureCollection","name":"ets2","features":[{"type":"Feature","properties":{"type":"poi","sprite":"ai","poiType":"company","poiName":"AI Automotive","secret":false},"geometry":{"type":"Point","coordinates":[10.827011352764602,49.49310580781617]}},{"type":"Feature","properties":{"type":"poi","sprite":"kathode","poiType":"company","poiName":"Kathode","secret":false},"geometry":{"type":"Point","coordinates":[11.154966540419807,49.560497237324434]}},{"type":"Feature","properties":{"type":"poi","sprite":"volvo_dlr","poiType":"company","poiName":"Volvo","secret":false},"geometry":{"type":"Point","coordinates":[11.114122358785496,49.48049314061765]}},{"type":"Feature","properties":{"type":"poi","sprite":"lkwlog","poiType":"company","poiName":"LkwLog GmbH","secret":false},"geometry":{"type":"Point","coordinates":[10.948625252665735,49.296378151823355]}},{"type":"Feature","properties":{"type":"poi","sprite":"cnp","poiType":"company","poiName":"CNP","secret":false},"geometry":{"type":"Point","coordinates":[10.884660906368206,49.29177910033614]}},{"type":"Feature","properties":{"type":"poi","sprite":"dfh","poiType":"company","poiName":"Deutsche Frachthäfen","secret":false},"geometry":{"type":"Point","coordinates":[10.956454389651762,49.266401171151166]}},{"type":"Feature","properties":{"type":"poi","sprite":"sanbuilders","poiType":"company","poiName":"Sanbuilders","secret":false},"geometry":{"type":"Point","coordinates":[11.115061087603149,49.663778106672396]}},{"type":"Feature","properties":{"type":"poi","sprite":"tree_et","poiType":"company","poiName":"Tree-ET","secret":false},"geometry":{"type":"Point","coordinates":[10.703477093855714,49.73333994085024]}},{"type":"Feature","properties":{"type":"poi","sprite":"sellplan","poiType":"company","poiName":"SellPlan","secret":false},"geometry":{"type":"Point","coordinates":[11.045689199961187,49.49910723347318]}},{"type":"Feature","properties":{"type":"poi","sprite":"rt_log","poiType":"company","poiName":"RT Log","secret":false},"geometry":{"type":"Point","coordinates":[10.890868661397457,49.27026132919481]}},{"type":"Feature","properties":{"type":"poi","sprite":"kathode","poiType":"company","poiName":"Kathode","secret":false},"geometry":{"type":"Point","coordinates":[11.467610405841787,48.270346529529334]}},{"type":"Feature","properties":{"type":"poi","sprite":"bcp","poiType":"company","poiName":"BCP","secret":false},"geometry":{"type":"Point","coordinates":[11.407707037737024,48.171511056779906]}},{"type":"Feature","properties":{"type":"poi","sprite":"ika_bohag","poiType":"company","poiName":"Ika Bohag","secret":false},"geometry":{"type":"Point","coordinates":[11.370759186981319,48.22680077926093]}},{"type":"Feature","properties":{"type":"poi","sprite":"trameri","poiType":"company","poiName":"Trameri","secret":false},"geometry":{"type":"Point","coordinates":[11.481993896480676,47.22006011166242]}},{"type":"Feature","properties":{"type":"poi","sprite":"rt_log","poiType":"company","poiName":"RT Log","secret":false},"geometry":{"type":"Point","coordinates":[11.284222476131037,47.16270905860887]}},{"type":"Feature","properties":{"type":"poi","sprite":"eurogoodies","poiType":"company","poiName":"EuroGoodies","secret":false},"geometry":{"type":"Point","coordinates":[11.425542281881917,47.16665934998379]}},{"type":"Feature","properties":{"type":"poi","sprite":"quarry","poiType":"company","poiName":"Steinbruch","secret":false},"geometry":{"type":"Point","coordinates":[11.001115925314426,47.30244977763385]}},{"type":"Feature","properties":{"type":"poi","sprite":"sellplan","poiType":"company","poiName":"SellPlan","secret":false},"geometry":{"type":"Point","coordinates":[10.994867449074095,50.97092977132548]}},{"type":"Feature","properties":{"type":"poi","sprite":"stokes","poiType":"company","poiName":"Stokes","secret":false},"geometry":{"type":"Point","coordinates":[11.012393946307357,51.113745067502386]}},{"type":"Feature","properties":{"type":"poi","sprite":"steinbr_str","poiType":"company","poiName":"Steinbruch","secret":false},"geometry":{"type":"Point","coordinates":[10.631349042023109,51.153606342434564]}},{"type":"Feature","properties":{"type":"poi","sprite":"euroacres","poiType":"company","poiName":"EuroAcres","secret":false},"geometry":{"type":"Point","coordinates":[10.727191755408192,51.169678223670765]}},{"type":"Feature","properties":{"type":"poi","sprite":"euroacres","poiType":"company","poiName":"EuroAcres","secret":false},"geometry":{"type":"Point","coordinates":[10.993638061596489,51.96954033906701]}},{"type":"Feature","properties":{"type":"poi","sprite":"feldbinder","poiType":"company","poiName":"Feldbinder","secret":false},"geometry":{"type":"Point","coordinates":[10.353542984286216,53.30121631977337]}},{"type":"Feature","properties":{"type":"poi","sprite":"feldbinder_t","poiType":"company","poiName":"Feldbinder","secret":false},"geometry":{"type":"Point","coordinates":[10.490812446068317,53.33431795685206]}},{"type":"Feature","properties":{"type":"poi","sprite":"marina","poiType":"company","poiName":"Marina","secret":false},"geometry":{"type":"Point","coordinates":[10.819322157821997,54.10669508356849]}},{"type":"Feature","properties":{"type":"poi","sprite":"rt_log","poiType":"company","poiName":"RT Log","secret":false},"geometry":{"type":"Point","coordinates":[10.715206238061244,53.968060636038324]}},{"type":"Feature","properties":{"type":"poi","sprite":"ika_bohag","poiType":"company","poiName":"Ika Bohag","secret":false},"geometry":{"type":"Point","coordinates":[10.00798970700407,54.401260700810234]}},{"type":"Feature","properties":{"type":"poi","sprite":"lkwlog","poiType":"company","poiName":"LkwLog GmbH","secret":false},"geometry":{"type":"Point","coordinates":[10.324021070099445,54.492898489349955]}},{"type":"Feature","properties":{"type":"poi","sprite":"ocean_sol","poiType":"company","poiName":"Ocean Solutions Group","secret":false},"geometry":{"type":"Point","coordinates":[10.322209203411715,54.622224698842146]}},{"type":"Feature","properties":{"type":"poi","sprite":"polarislines","poiType":"company","poiName":"Polaris Lines","secret":false},"geometry":{"type":"Point","coordinates":[10.184282844757867,54.547628409082]}},{"type":"Feature","properties":{"type":"poi","sprite":"kaarfor","poiType":"company","poiName":"Kaarfor","secret":false},"geometry":{"type":"Point","coordinates":[10.342470098597218,54.32124018546824]}},{"type":"Feature","properties":{"type":"poi","sprite":"transinet","poiType":"company","poiName":"TransiNet","secret":false},"geometry":{"type":"Point","coordinates":[11.718405221917948,48.215615602620105]}},{"type":"Feature","properties":{"type":"poi","sprite":"sanbuild_bas","poiType":"company","poiName":"Sanbuilders","secret":false},"geometry":{"type":"Point","coordinates":[11.799611963375568,48.04858464203158]}},{"type":"Feature","properties":{"type":"poi","sprite":"steinbr_str","poiType":"company","poiName":"Steinbruch","secret":false},"geometry":{"type":"Point","coordinates":[11.842116473999928,48.252113642298276]}},{"type":"Feature","properties":{"type":"poi","sprite":"kaarfor","poiType":"company","poiName":"Kaarfor","secret":false},"geometry":{"type":"Point","coordinates":[11.699898228216211,48.234915319293336]}},{"type":"Feature","properties":{"type":"poi","sprite":"quarry","poiType":"company","poiName":"Steinbruch","secret":false},"geometry":{"type":"Point","coordinates":[12.617186251635374,47.3076222134017]}},{"type":"Feature","properties":{"type":"poi","sprite":"tree_et","poiType":"company","poiName":"Tree-ET","secret":false},"geometry":{"type":"Point","coordinates":[12.599871336571704,47.41198950842749]}},{"type":"Feature","properties":{"type":"poi","sprite":"eurogoodies","poiType":"company","poiName":"EuroGoodies","secret":false},"geometry":{"type":"Point","coordinates":[12.020147385196317,45.37521923338436]}},{"type":"Feature","properties":{"type":"poi","sprite":"sellplan","poiType":"company","poiName":"SellPlan","secret":false},"geometry":{"type":"Point","coordinates":[12.028935248339522,45.397921455263415]}},{"type":"Feature","properties":{"type":"poi","sprite":"lkwlog","poiType":"company","poiName":"LkwLog GmbH","secret":false},"geometry":{"type":"Point","coordinates":[12.109148261786736,45.39137035340815]}},{"type":"Feature","properties":{"type":"poi","sprite":"renat","poiType":"company","poiName":"Renat","secret":false},"geometry":{"type":"Point","coordinates":[12.373244906651484,51.239155623602]}},{"type":"Feature","properties":{"type":"poi","sprite":"eurogoodies","poiType":"company","poiName":"EuroGoodies","secret":false},"geometry":{"type":"Point","coordinates":[12.390130627138602,51.26595404077265]}},{"type":"Feature","properties":{"type":"poi","sprite":"sanbuild_bas","poiType":"company","poiName":"Sanbuilders","secret":false},"geometry":{"type":"Point","coordinates":[12.210417167826284,51.2051818130106]}},{"type":"Feature","properties":{"type":"poi","sprite":"kaarfor","poiType":"company","poiName":"Kaarfor","secret":false},"geometry":{"type":"Point","coordinates":[11.437597286803861,52.07181350234418]}},{"type":"Feature","properties":{"type":"poi","sprite":"tree_et","poiType":"company","poiName":"Tree-ET","secret":false},"geometry":{"type":"Point","coordinates":[11.605324955836116,51.55649021417651]}},{"type":"Feature","properties":{"type":"poi","sprite":"fcp","poiType":"company","poiName":"FCP","secret":false},"geometry":{"type":"Point","coordinates":[12.239342334865603,51.43602052630842]}},{"type":"Feature","properties":{"type":"poi","sprite":"fle","poiType":"company","poiName":"FLE","secret":false},"geometry":{"type":"Point","coordinates":[12.132620266974508,51.4184119828267]}},{"type":"Feature","properties":{"type":"poi","sprite":"lkwlog","poiType":"company","poiName":"LkwLog GmbH","secret":false},"geometry":{"type":"Point","coordinates":[11.425496096975952,52.16237886749675]}},{"type":"Feature","properties":{"type":"poi","sprite":"steinbr_str","poiType":"company","poiName":"Steinbruch","secret":false},"geometry":{"type":"Point","coordinates":[11.434141244150206,52.299281525163394]}},{"type":"Feature","properties":{"type":"poi","sprite":"vitas_pwr","poiType":"company","poiName":"Vitas Power","secret":false},"geometry":{"type":"Point","coordinates":[11.537018955113636,52.18292475033263]}},{"type":"Feature","properties":{"type":"poi","sprite":"granoro","poiType":"company","poiName":"Granoro","secret":false},"geometry":{"type":"Point","coordinates":[11.535797427607827,52.13696367539237]}},{"type":"Feature","properties":{"type":"poi","sprite":"marina","poiType":"company","poiName":"Marina","secret":false},"geometry":{"type":"Point","coordinates":[11.723187589971065,54.04940105238338]}},{"type":"Feature","properties":{"type":"poi","sprite":"sellplan","poiType":"company","poiName":"SellPlan","secret":false},"geometry":{"type":"Point","coordinates":[12.115143870980084,53.986120485962985]}},{"type":"Feature","properties":{"type":"poi","sprite":"euroacres","poiType":"company","poiName":"EuroAcres","secret":false},"geometry":{"type":"Point","coordinates":[11.176349880839739,54.01193515962837]}},{"type":"Feature","properties":{"type":"poi","sprite":"vitas_pwr","poiType":"company","poiName":"Vitas Power","secret":false},"geometry":{"type":"Point","coordinates":[11.954673557112145,54.33190483905351]}},{"type":"Feature","properties":{"type":"poi","sprite":"dfh","poiType":"company","poiName":"Deutsche Frachthäfen","secret":false},"geometry":{"type":"Point","coordinates":[12.040355298712674,54.32535405197982]}},{"type":"Feature","properties":{"type":"poi","sprite":"granoro","poiType":"company","poiName":"Granoro","secret":false},"geometry":{"type":"Point","coordinates":[12.285321723670092,54.356558436800306]}},{"type":"Feature","properties":{"type":"poi","sprite":"konstnr_wind","poiType":"company","poiName":"Konstnorr","secret":false},"geometry":{"type":"Point","coordinates":[11.721826637797236,54.70222268826689]}},{"type":"Feature","properties":{"type":"poi","sprite":"polarislines","poiType":"company","poiName":"Polaris Lines","secret":false},"geometry":{"type":"Point","coordinates":[11.784986859730882,54.585586333709585]}},{"type":"Feature","properties":{"type":"poi","sprite":"rt_log","poiType":"company","poiName":"RT Log","secret":false},"geometry":{"type":"Point","coordinates":[11.787212616321737,54.24204521069204]}},{"type":"Feature","properties":{"type":"poi","sprite":"polarislines","poiType":"company","poiName":"Polaris Lines","secret":false},"geometry":{"type":"Point","coordinates":[10.734419752201134,60.09348001122786]}},{"type":"Feature","properties":{"type":"poi","sprite":"cont_port","poiType":"company","poiName":"Container port","secret":false},"geometry":{"type":"Point","coordinates":[10.810489336185961,59.84822070693501]}},{"type":"Feature","properties":{"type":"poi","sprite":"quarry","poiType":"company","poiName":"Steinbruch","secret":false},"geometry":{"type":"Point","coordinates":[13.469968438878855,50.30125600026958]}},{"type":"Feature","properties":{"type":"poi","sprite":"sanbuilders","poiType":"company","poiName":"Sanbuilders","secret":false},"geometry":{"type":"Point","coordinates":[12.884742603180927,47.92333102115777]}},{"type":"Feature","properties":{"type":"poi","sprite":"sellplan","poiType":"company","poiName":"SellPlan","secret":false},"geometry":{"type":"Point","coordinates":[12.899290364816625,47.94926919260834]}},{"type":"Feature","properties":{"type":"poi","sprite":"rt_log","poiType":"company","poiName":"RT Log","secret":false},"geometry":{"type":"Point","coordinates":[13.083702736974349,47.94148878102696]}},{"type":"Feature","properties":{"type":"poi","sprite":"renat","poiType":"company","poiName":"Renat","secret":false},"geometry":{"type":"Point","coordinates":[13.137902507664716,48.17905508536329]}},{"type":"Feature","properties":{"type":"poi","sprite":"shuttle","poiType":"company","poiName":"Shuttle Cola","secret":false},"geometry":{"type":"Point","coordinates":[12.990899039676028,47.78643537646272]}},{"type":"Feature","properties":{"type":"poi","sprite":"sanbuild_hms","poiType":"company","poiName":"Sanbuilders","secret":false},"geometry":{"type":"Point","coordinates":[13.420082828585064,47.21730963963789]}},{"type":"Feature","properties":{"type":"poi","sprite":"euroacres","poiType":"company","poiName":"EuroAcres","secret":false},"geometry":{"type":"Point","coordinates":[13.131801612369063,47.019583413813656]}},{"type":"Feature","properties":{"type":"poi","sprite":"tree_et_log","poiType":"company","poiName":"Tree-ET","secret":false},"geometry":{"type":"Point","coordinates":[13.16671953873095,46.74733631210709]}},{"type":"Feature","properties":{"type":"poi","sprite":"cont_port_it","poiType":"company","poiName":"Terminal Container","secret":false},"geometry":{"type":"Point","coordinates":[13.407783644749781,45.82827528645]}},{"type":"Feature","properties":{"type":"poi","sprite":"cont_port","poiType":"company","poiName":"Container port","secret":false},"geometry":{"type":"Point","coordinates":[13.60588323236432,45.591799026206424]}},{"type":"Feature","properties":{"type":"poi","sprite":"eurogoodies","poiType":"company","poiName":"EuroGoodies","secret":false},"geometry":{"type":"Point","coordinates":[13.577764021133671,45.502224379491786]}},{"type":"Feature","properties":{"type":"poi","sprite":"tdc_auto","poiType":"company","poiName":"TDC Auto Terminal","secret":false},"geometry":{"type":"Point","coordinates":[13.614779315057879,45.50953770942597]}},{"type":"Feature","properties":{"type":"poi","sprite":"trameri","poiType":"company","poiName":"Trameri","secret":false},"geometry":{"type":"Point","coordinates":[13.456430775870981,51.00829601852894]}},{"type":"Feature","properties":{"type":"poi","sprite":"sellplan","poiType":"company","poiName":"SellPlan","secret":false},"geometry":{"type":"Point","coordinates":[13.561103530782848,51.147795781457695]}},{"type":"Feature","properties":{"type":"poi","sprite":"ns_oil","poiType":"company","poiName":"NS Oil","secret":false},"geometry":{"type":"Point","coordinates":[13.408376053565044,51.05111294715707]}},{"type":"Feature","properties":{"type":"poi","sprite":"euroacres","poiType":"company","poiName":"EuroAcres","secret":false},"geometry":{"type":"Point","coordinates":[13.317516215360849,51.12354630504146]}},{"type":"Feature","properties":{"type":"poi","sprite":"dfh","poiType":"company","poiName":"Deutsche Frachthäfen","secret":false},"geometry":{"type":"Point","coordinates":[13.453276589673548,51.042108629695655]}},{"type":"Feature","properties":{"type":"poi","sprite":"nbfc","poiType":"company","poiName":"NBFC","secret":false},"geometry":{"type":"Point","coordinates":[13.220042268491266,52.65757273814885]}},{"type":"Feature","properties":{"type":"poi","sprite":"dfh","poiType":"company","poiName":"Deutsche Frachthäfen","secret":false},"geometry":{"type":"Point","coordinates":[13.130055957644778,52.625258567013354]}},{"type":"Feature","properties":{"type":"poi","sprite":"sanbuild_win","poiType":"company","poiName":"Sanbuilders","secret":false},"geometry":{"type":"Point","coordinates":[13.414219736909848,52.69944856458676]}},{"type":"Feature","properties":{"type":"poi","sprite":"eurogoodies","poiType":"company","poiName":"EuroGoodies","secret":false},"geometry":{"type":"Point","coordinates":[13.022330248759477,52.59366143326465]}},{"type":"Feature","properties":{"type":"poi","sprite":"ns_oil","poiType":"company","poiName":"NS Oil","secret":false},"geometry":{"type":"Point","coordinates":[13.134768156631404,52.65127396202397]}},{"type":"Feature","properties":{"type":"poi","sprite":"eurogoodies","poiType":"company","poiName":"EuroGoodies","secret":false},"geometry":{"type":"Point","coordinates":[14.301474308561202,50.09336893252497]}},{"type":"Feature","properties":{"type":"poi","sprite":"skoda","poiType":"company","poiName":"Scout","secret":false},"geometry":{"type":"Point","coordinates":[14.705082557883271,50.419117911667044]}},{"type":"Feature","properties":{"type":"poi","sprite":"sellplan","poiType":"company","poiName":"SellPlan","secret":false},"geometry":{"type":"Point","coordinates":[14.27437938491195,50.07196941080524]}},{"type":"Feature","properties":{"type":"poi","sprite":"tradeaux","poiType":"company","poiName":"Tradeaux","secret":false},"geometry":{"type":"Point","coordinates":[14.437465481082823,50.05807341738544]}},{"type":"Feature","properties":{"type":"poi","sprite":"itcc_scrap","poiType":"company","poiName":"ITCC","secret":false},"geometry":{"type":"Point","coordinates":[14.310310230771305,48.23028263028878]}},{"type":"Feature","properties":{"type":"poi","sprite":"rt_log","poiType":"company","poiName":"RT Log","secret":false},"geometry":{"type":"Point","coordinates":[14.180719360300296,48.237688565827355]}},{"type":"Feature","properties":{"type":"poi","sprite":"domdepo","poiType":"company","poiName":"DomDepo","secret":false},"geometry":{"type":"Point","coordinates":[14.820111462151234,48.10091590489783]}},{"type":"Feature","properties":{"type":"poi","sprite":"posped","poiType":"company","poiName":"Posped","secret":false},"geometry":{"type":"Point","coordinates":[14.474067405777488,48.31621688649891]}},{"type":"Feature","properties":{"type":"poi","sprite":"itcc","poiType":"company","poiName":"ITCC","secret":false},"geometry":{"type":"Point","coordinates":[14.38734277141317,48.224110440451874]}},{"type":"Feature","properties":{"type":"poi","sprite":"euroacres","poiType":"company","poiName":"EuroAcres","secret":false},"geometry":{"type":"Point","coordinates":[14.733615530491488,47.66291166734407]}},{"type":"Feature","properties":{"type":"poi","sprite":"sellplan","poiType":"company","poiName":"SellPlan","secret":false},"geometry":{"type":"Point","coordinates":[14.67494939407651,46.75905278004568]}},{"type":"Feature","properties":{"type":"poi","sprite":"eurogoodies","poiType":"company","poiName":"EuroGoodies","secret":false},"geometry":{"type":"Point","coordinates":[14.353447892245867,46.63750570746877]}},{"type":"Feature","properties":{"type":"poi","sprite":"trameri","poiType":"company","poiName":"Trameri","secret":false},"geometry":{"type":"Point","coordinates":[14.712486073903111,46.69251264183519]}},{"type":"Feature","properties":{"type":"poi","sprite":"tradeaux","poiType":"company","poiName":"Tradeaux","secret":false},"geometry":{"type":"Point","coordinates":[14.654037858485244,46.72258191412612]}},{"type":"Feature","properties":{"type":"poi","sprite":"kathode","poiType":"company","poiName":"Kathode","secret":false},"geometry":{"type":"Point","coordinates":[14.333656431951713,46.63113038285857]}},{"type":"Feature","properties":{"type":"poi","sprite":"villco_mkt","poiType":"company","poiName":"Villco","secret":false},"geometry":{"type":"Point","coordinates":[14.597406707290359,46.180796560360626]}},{"type":"Feature","properties":{"type":"poi","sprite":"brawen","poiType":"company","poiName":"Brawen Transport","secret":false},"geometry":{"type":"Point","coordinates":[14.676579107754351,46.137836803061546]}},{"type":"Feature","properties":{"type":"poi","sprite":"itcc","poiType":"company","poiName":"ITCC","secret":false},"geometry":{"type":"Point","coordinates":[13.997783035598124,46.45743199015997]}},{"type":"Feature","properties":{"type":"poi","sprite":"ai","poiType":"company","poiName":"AI Automotive","secret":false},"geometry":{"type":"Point","coordinates":[14.68983135375707,46.15789444314002]}},{"type":"Feature","properties":{"type":"poi","sprite":"balkan_loco","poiType":"company","poiName":"Balkan Loco","secret":false},"geometry":{"type":"Point","coordinates":[14.674359588402366,46.1143087533813]}},{"type":"Feature","properties":{"type":"poi","sprite":"adrica","poiType":"company","poiName":"Adrica","secret":false},"geometry":{"type":"Point","coordinates":[14.333187848848763,45.415829917664446]}},{"type":"Feature","properties":{"type":"poi","sprite":"cont_port","poiType":"company","poiName":"Container port","secret":false},"geometry":{"type":"Point","coordinates":[14.352955479803606,45.399833600877464]}},{"type":"Feature","properties":{"type":"poi","sprite":"ika_bohag","poiType":"company","poiName":"Ika Bohag","secret":false},"geometry":{"type":"Point","coordinates":[14.698029567336336,45.57726438124471]}},{"type":"Feature","properties":{"type":"poi","sprite":"eurogoodies","poiType":"company","poiName":"EuroGoodies","secret":false},"geometry":{"type":"Point","coordinates":[14.81166845926401,45.49325247126695]}},{"type":"Feature","properties":{"type":"poi","sprite":"fcp","poiType":"company","poiName":"FCP","secret":false},"geometry":{"type":"Point","coordinates":[13.826898185556866,52.48518001778615]}},{"type":"Feature","properties":{"type":"poi","sprite":"sanbuilders","poiType":"company","poiName":"Sanbuilders","secret":false},"geometry":{"type":"Point","coordinates":[13.830475828932569,52.53163072018742]}},{"type":"Feature","properties":{"type":"poi","sprite":"eurogoodies","poiType":"company","poiName":"EuroGoodies","secret":false},"geometry":{"type":"Point","coordinates":[14.539460654713798,53.43828202364255]}},{"type":"Feature","properties":{"type":"poi","sprite":"transinet","poiType":"company","poiName":"TransiNet","secret":false},"geometry":{"type":"Point","coordinates":[14.50481675877878,53.43101250213197]}},{"type":"Feature","properties":{"type":"poi","sprite":"itcc","poiType":"company","poiName":"ITCC","secret":false},"geometry":{"type":"Point","coordinates":[14.516440257679385,53.407248133703206]}},{"type":"Feature","properties":{"type":"poi","sprite":"tree_et","poiType":"company","poiName":"Tree-ET","secret":false},"geometry":{"type":"Point","coordinates":[15.094245542244664,47.492912253441496]}},{"type":"Feature","properties":{"type":"poi","sprite":"quarry","poiType":"company","poiName":"Steinbruch","secret":false},"geometry":{"type":"Point","coordinates":[15.321669880561503,47.323100062988104]}},{"type":"Feature","properties":{"type":"poi","sprite":"fcp","poiType":"company","poiName":"FCP","secret":false},"geometry":{"type":"Point","coordinates":[15.614335110715318,47.02806734661412]}},{"type":"Feature","properties":{"type":"poi","sprite":"stokes","poiType":"company","poiName":"Stokes","secret":false},"geometry":{"type":"Point","coordinates":[15.583563093513892,46.636767147791794]}},{"type":"Feature","properties":{"type":"poi","sprite":"balkan_loco","poiType":"company","poiName":"Balkan Loco","secret":false},"geometry":{"type":"Point","coordinates":[15.520030725805482,46.65359379939857]}},{"type":"Feature","properties":{"type":"poi","sprite":"eumefa","poiType":"company","poiName":"Eumefa","secret":false},"geometry":{"type":"Point","coordinates":[15.674549340269536,46.65509128994195]}},{"type":"Feature","properties":{"type":"poi","sprite":"rt_log","poiType":"company","poiName":"RT Log","secret":false},"geometry":{"type":"Point","coordinates":[15.439187739666647,47.07339745713122]}},{"type":"Feature","properties":{"type":"poi","sprite":"lkwlog","poiType":"company","poiName":"LkwLog GmbH","secret":false},"geometry":{"type":"Point","coordinates":[15.423120514090305,47.08634457834042]}},{"type":"Feature","properties":{"type":"poi","sprite":"itcc","poiType":"company","poiName":"ITCC","secret":false},"geometry":{"type":"Point","coordinates":[15.56973040577731,46.68810449310101]}},{"type":"Feature","properties":{"type":"poi","sprite":"steinbr_str","poiType":"company","poiName":"Steinbruch","secret":false},"geometry":{"type":"Point","coordinates":[15.319369966754607,46.97665534846167]}},{"type":"Feature","properties":{"type":"poi","sprite":"quarry","poiType":"company","poiName":"Steinbruch","secret":false},"geometry":{"type":"Point","coordinates":[16.48705932034033,50.51053018582585]}},{"type":"Feature","properties":{"type":"poi","sprite":"euroacres","poiType":"company","poiName":"EuroAcres","secret":false},"geometry":{"type":"Point","coordinates":[16.140404436964094,49.293051471436684]}},{"type":"Feature","properties":{"type":"poi","sprite":"euroacres","poiType":"company","poiName":"EuroAcres","secret":false},"geometry":{"type":"Point","coordinates":[16.024071746633407,48.62962780955669]}},{"type":"Feature","properties":{"type":"poi","sprite":"lkwlog","poiType":"company","poiName":"LkwLog GmbH","secret":false},"geometry":{"type":"Point","coordinates":[16.43233751522132,48.9660199536737]}},{"type":"Feature","properties":{"type":"poi","sprite":"trameri","poiType":"company","poiName":"Trameri","secret":false},"geometry":{"type":"Point","coordinates":[16.424098601009373,48.9833105703026]}},{"type":"Feature","properties":{"type":"poi","sprite":"sanbuilders","poiType":"company","poiName":"Sanbuilders","secret":false},"geometry":{"type":"Point","coordinates":[16.491575920252924,49.15208070812595]}},{"type":"Feature","properties":{"type":"poi","sprite":"ns_oil","poiType":"company","poiName":"NS Oil","secret":false},"geometry":{"type":"Point","coordinates":[16.456116870532423,47.898694485564505]}},{"type":"Feature","properties":{"type":"poi","sprite":"cnp","poiType":"company","poiName":"CNP","secret":false},"geometry":{"type":"Point","coordinates":[16.410673589541393,47.93347500018948]}},{"type":"Feature","properties":{"type":"poi","sprite":"sellplan","poiType":"company","poiName":"SellPlan","secret":false},"geometry":{"type":"Point","coordinates":[16.073824576445446,47.91994961602837]}},{"type":"Feature","properties":{"type":"poi","sprite":"stokes","poiType":"company","poiName":"Stokes","secret":false},"geometry":{"type":"Point","coordinates":[16.163745457355994,47.789039143732104]}},{"type":"Feature","properties":{"type":"poi","sprite":"eurogoodies","poiType":"company","poiName":"EuroGoodies","secret":false},"geometry":{"type":"Point","coordinates":[16.134177591855764,47.87901747158225]}},{"type":"Feature","properties":{"type":"poi","sprite":"trameri","poiType":"company","poiName":"Trameri","secret":false},"geometry":{"type":"Point","coordinates":[16.96920173158211,51.0364693323399]}},{"type":"Feature","properties":{"type":"poi","sprite":"eurogoodies","poiType":"company","poiName":"EuroGoodies","secret":false},"geometry":{"type":"Point","coordinates":[16.93103957886394,51.02289954109398]}},{"type":"Feature","properties":{"type":"poi","sprite":"euroacres","poiType":"company","poiName":"EuroAcres","secret":false},"geometry":{"type":"Point","coordinates":[16.631122105819376,50.833257348921634]}},{"type":"Feature","properties":{"type":"poi","sprite":"fcp","poiType":"company","poiName":"FCP","secret":false},"geometry":{"type":"Point","coordinates":[16.797975427623072,52.32685824144342]}},{"type":"Feature","properties":{"type":"poi","sprite":"stokes","poiType":"company","poiName":"Stokes","secret":false},"geometry":{"type":"Point","coordinates":[16.749753579719282,52.34552538787324]}},{"type":"Feature","properties":{"type":"poi","sprite":"kaarfor","poiType":"company","poiName":"Kaarfor","secret":false},"geometry":{"type":"Point","coordinates":[16.7855688298394,52.34198085616078]}},{"type":"Feature","properties":{"type":"poi","sprite":"primel","poiType":"company","poiName":"Primel","secret":false},"geometry":{"type":"Point","coordinates":[16.874921035734026,60.5543305566078]}},{"type":"Feature","properties":{"type":"poi","sprite":"primel","poiType":"company","poiName":"Primel","secret":false},"geometry":{"type":"Point","coordinates":[17.582223283658422,59.905353763956036]}},{"type":"Feature","properties":{"type":"poi","sprite":"norr_food","poiType":"company","poiName":"Norrfood","secret":false},"geometry":{"type":"Point","coordinates":[17.049298539247847,60.48405248605708]}},{"type":"Feature","properties":{"type":"poi","sprite":"konstnr","poiType":"company","poiName":"Konstnorr","secret":false},"geometry":{"type":"Point","coordinates":[17.0693260614826,60.56352006029497]}},{"type":"Feature","properties":{"type":"poi","sprite":"bhv","poiType":"company","poiName":"BHV","secret":false},"geometry":{"type":"Point","coordinates":[17.078300584005962,60.497986162164835]}},{"type":"Feature","properties":{"type":"poi","sprite":"wgcc","poiType":"company","poiName":"WGCC","secret":false},"geometry":{"type":"Point","coordinates":[17.084071985681046,48.10285616224382]}},{"type":"Feature","properties":{"type":"poi","sprite":"tree_et","poiType":"company","poiName":"Tree-ET","secret":false},"geometry":{"type":"Point","coordinates":[17.155089822311957,48.57446269182847]}},{"type":"Feature","properties":{"type":"poi","sprite":"posped","poiType":"company","poiName":"Posped","secret":false},"geometry":{"type":"Point","coordinates":[17.191262864990765,48.13029204506472]}},{"type":"Feature","properties":{"type":"poi","sprite":"bcp","poiType":"company","poiName":"BCP","secret":false},"geometry":{"type":"Point","coordinates":[17.125094057189916,48.096866622535764]}},{"type":"Feature","properties":{"type":"poi","sprite":"tree_et","poiType":"company","poiName":"Tree-ET","secret":false},"geometry":{"type":"Point","coordinates":[17.173499836163153,52.51585499516785]}},{"type":"Feature","properties":{"type":"poi","sprite":"skog_paper","poiType":"company","poiName":"Skog Paperworks","secret":false},"geometry":{"type":"Point","coordinates":[17.683764224400754,60.51394221393555]}},{"type":"Feature","properties":{"type":"poi","sprite":"shuttle","poiType":"company","poiName":"Shuttle Cola","secret":false},"geometry":{"type":"Point","coordinates":[18.747557669408373,45.605683697001346]}},{"type":"Feature","properties":{"type":"poi","sprite":"villco_mkt","poiType":"company","poiName":"Villco","secret":false},"geometry":{"type":"Point","coordinates":[18.71881554789717,45.64343231308913]}},{"type":"Feature","properties":{"type":"poi","sprite":"syschema","poiType":"company","poiName":"SysChema","secret":false},"geometry":{"type":"Point","coordinates":[18.67461559871919,45.63084629029445]}},{"type":"Feature","properties":{"type":"poi","sprite":"slava","poiType":"company","poiName":"Slava Auto","secret":false},"geometry":{"type":"Point","coordinates":[18.636286087921885,45.44200438287182]}},{"type":"Feature","properties":{"type":"poi","sprite":"vesna_mill","poiType":"company","poiName":"Vesna","secret":false},"geometry":{"type":"Point","coordinates":[19.69070027630772,45.77058757397716]}},{"type":"Feature","properties":{"type":"poi","sprite":"euroacres","poiType":"company","poiName":"EuroAcres","secret":false},"geometry":{"type":"Point","coordinates":[19.945447605547514,46.30145830944976]}},{"type":"Feature","properties":{"type":"poi","sprite":"lkwlog","poiType":"company","poiName":"LkwLog GmbH","secret":false},"geometry":{"type":"Point","coordinates":[20.17796430099169,46.26258204636963]}},{"type":"Feature","properties":{"type":"poi","sprite":"posped","poiType":"company","poiName":"Posped","secret":false},"geometry":{"type":"Point","coordinates":[20.13134828114949,46.23471912646239]}},{"type":"Feature","properties":{"type":"poi","sprite":"trameri","poiType":"company","poiName":"Trameri","secret":false},"geometry":{"type":"Point","coordinates":[20.23933444443913,46.24118172896702]}},{"type":"Feature","properties":{"type":"poi","sprite":"vesna","poiType":"company","poiName":"Vesna","secret":false},"geometry":{"type":"Point","coordinates":[21.39061891193845,45.20502911566632]}},{"type":"Feature","properties":{"type":"poi","sprite":"vitas_pwr_co","poiType":"company","poiName":"Vitas Power","secret":false},"geometry":{"type":"Point","coordinates":[21.106413360195283,45.44045904767246]}},{"type":"Feature","properties":{"type":"poi","sprite":"zelenye_a","poiType":"company","poiName":"Зелёные Поля OOO","secret":false},"geometry":{"type":"Point","coordinates":[22.319023589336798,54.70148566503259]}},{"type":"Feature","properties":{"type":"poi","sprite":"ai","poiType":"company","poiName":"AI Automotive","secret":false},"geometry":{"type":"Point","coordinates":[21.958514093760737,43.53065514139251]}},{"type":"Feature","properties":{"type":"poi","sprite":"radus","poiType":"company","poiName":"Radus","secret":false},"geometry":{"type":"Point","coordinates":[22.170864033594274,43.48144740229855]}},{"type":"Feature","properties":{"type":"poi","sprite":"timberturtle","poiType":"company","poiName":"Timber Turtle","secret":false},"geometry":{"type":"Point","coordinates":[22.115568985967624,44.10000971983047]}},{"type":"Feature","properties":{"type":"poi","sprite":"fle","poiType":"company","poiName":"FLE","secret":false},"geometry":{"type":"Point","coordinates":[21.89652713021441,43.45946849390196]}},{"type":"Feature","properties":{"type":"poi","sprite":"cnp_str","poiType":"company","poiName":"CNP","secret":false},"geometry":{"type":"Point","coordinates":[22.005887047714932,43.529553800980175]}},{"type":"Feature","properties":{"type":"poi","sprite":"villco","poiType":"company","poiName":"Villco","secret":false},"geometry":{"type":"Point","coordinates":[21.931674436962457,43.5446841429204]}},{"type":"Feature","properties":{"type":"poi","sprite":"jastuk","poiType":"company","poiName":"Jastuk","secret":false},"geometry":{"type":"Point","coordinates":[21.850235714670717,42.758331579740286]}},{"type":"Feature","properties":{"type":"poi","sprite":"eumefa","poiType":"company","poiName":"Eumefa","secret":false},"geometry":{"type":"Point","coordinates":[22.25840659875393,43.33804444687718]}},{"type":"Feature","properties":{"type":"poi","sprite":"syllurgy","poiType":"company","poiName":"Syllurgy","secret":false},"geometry":{"type":"Point","coordinates":[21.66366409354462,43.266581004620136]}},{"type":"Feature","properties":{"type":"poi","sprite":"ai","poiType":"company","poiName":"AI Automotive","secret":false},"geometry":{"type":"Point","coordinates":[21.94208032927875,42.167034934032664]}},{"type":"Feature","properties":{"type":"poi","sprite":"itcc","poiType":"company","poiName":"ITCC","secret":false},"geometry":{"type":"Point","coordinates":[21.582462994453266,42.09804837369072]}},{"type":"Feature","properties":{"type":"poi","sprite":"subse","poiType":"company","poiName":"Subse","secret":false},"geometry":{"type":"Point","coordinates":[21.792537014716682,41.313375990843625]}},{"type":"Feature","properties":{"type":"poi","sprite":"tqg","poiType":"company","poiName":"TQG","secret":false},"geometry":{"type":"Point","coordinates":[27.596333613067603,61.16410548812036]}},{"type":"Feature","properties":{"type":"poi","sprite":"sal_fi","poiType":"company","poiName":"SAL","secret":false},"geometry":{"type":"Point","coordinates":[26.56489766213432,60.947153235412635]}},{"type":"Feature","properties":{"type":"poi","sprite":"lintukainen","poiType":"company","poiName":"Lintukainen Oy","secret":false},"geometry":{"type":"Point","coordinates":[26.575209862538703,60.87330209030914]}},{"type":"Feature","properties":{"type":"poi","sprite":"nch","poiType":"company","poiName":"NCH","secret":false},"geometry":{"type":"Point","coordinates":[26.776494327017716,60.870525547458335]}},{"type":"Feature","properties":{"type":"poi","sprite":"radus","poiType":"company","poiName":"Radus","secret":false},"geometry":{"type":"Point","coordinates":[27.065837498416563,60.93784245195425]}},{"type":"Feature","properties":{"type":"poi","sprite":"baltomors_ru","poiType":"company","poiName":"Балтоморск","secret":false},"geometry":{"type":"Point","coordinates":[28.85246649307513,60.741949082163686]}},{"type":"Feature","properties":{"type":"poi","sprite":"sal_fi","poiType":"company","poiName":"SAL","secret":false},"geometry":{"type":"Point","coordinates":[28.625108478563515,61.10669683246831]}},{"type":"Feature","properties":{"type":"poi","sprite":"viljo_paper","poiType":"company","poiName":"Viljo paperitehdas Oy","secret":false},"geometry":{"type":"Point","coordinates":[28.370886943922805,61.27167565891381]}},{"type":"Feature","properties":{"type":"poi","sprite":"rosmark_ru","poiType":"company","poiName":"Росмарк","secret":false},"geometry":{"type":"Point","coordinates":[28.65681553807389,60.73746515858606]}},{"type":"Feature","properties":{"type":"poi","sprite":"kamen_ru","poiType":"company","poiName":"Старый Камень","secret":false},"geometry":{"type":"Point","coordinates":[29.15342894078593,60.86726328655726]}},{"type":"Feature","properties":{"type":"poi","sprite":"lintukainen","poiType":"company","poiName":"Lintukainen Oy","secret":false},"geometry":{"type":"Point","coordinates":[28.32819965004341,61.327941020110394]}},{"type":"Feature","properties":{"type":"poi","sprite":"suprema","poiType":"company","poiName":"Suprema","secret":false},"geometry":{"type":"Point","coordinates":[28.087442667925167,61.25356567772855]}},{"type":"Feature","properties":{"type":"poi","sprite":"kivisydan","poiType":"company","poiName":"Kivisydän Betoni","secret":false},"geometry":{"type":"Point","coordinates":[28.279718352606288,61.038861497247254]}},{"type":"Feature","properties":{"type":"poi","sprite":"domdepo_ru","poiType":"company","poiName":"ДомДепо","secret":false},"geometry":{"type":"Point","coordinates":[28.599308832235426,60.72525514907188]}},{"type":"Feature","properties":{"type":"poi","sprite":"rock_eater","poiType":"company","poiName":"Rock Eater","secret":false},"geometry":{"type":"Point","coordinates":[24.949386237749962,41.10996027299688]}},{"type":"Feature","properties":{"type":"poi","sprite":"suprema_ru","poiType":"company","poiName":"Супрема","secret":false},"geometry":{"type":"Point","coordinates":[28.13964442164335,57.79099543463274]}},{"type":"Feature","properties":{"type":"poi","sprite":"muromec","poiType":"company","poiName":"Муромец","secret":false},"geometry":{"type":"Point","coordinates":[28.26213295982322,57.656196709266794]}},{"type":"Feature","properties":{"type":"poi","sprite":"blt_ru","poiType":"company","poiName":"БЛТ","secret":false},"geometry":{"type":"Point","coordinates":[28.284346516284,57.93902162884704]}},{"type":"Feature","properties":{"type":"poi","sprite":"baltomors_ru","poiType":"company","poiName":"Балтоморск","secret":false},"geometry":{"type":"Point","coordinates":[28.727867938009055,57.92949527412788]}},{"type":"Feature","properties":{"type":"poi","sprite":"ns_oil_ru","poiType":"company","poiName":"НС Ойл","secret":false},"geometry":{"type":"Point","coordinates":[28.96518778459344,57.904628432627526]}},{"type":"Feature","properties":{"type":"poi","sprite":"syschema","poiType":"company","poiName":"SysChema","secret":false},"geometry":{"type":"Point","coordinates":[25.143932299854484,41.11459393361343]}},{"type":"Feature","properties":{"type":"poi","sprite":"rosmark_ru","poiType":"company","poiName":"Росмарк","secret":false},"geometry":{"type":"Point","coordinates":[29.995430324888787,58.76179500395303]}},{"type":"Feature","properties":{"type":"poi","sprite":"domdepo_ru","poiType":"company","poiName":"ДомДепо","secret":false},"geometry":{"type":"Point","coordinates":[30.134565374871254,58.81985252889271]}},{"type":"Feature","properties":{"type":"poi","sprite":"ns_chem_ru","poiType":"company","poiName":"НС Химия","secret":false},"geometry":{"type":"Point","coordinates":[29.980792031442018,58.82579145606073]}},{"type":"Feature","properties":{"type":"poi","sprite":"baltomors_ru","poiType":"company","poiName":"Балтоморск","secret":false},"geometry":{"type":"Point","coordinates":[30.01253252242359,58.95027895611354]}},{"type":"Feature","properties":{"type":"poi","sprite":"pk_medved_ru","poiType":"company","poiName":"ПК Медведь","secret":false},"geometry":{"type":"Point","coordinates":[31.315974424316618,58.91886213414375]}},{"type":"Feature","properties":{"type":"poi","sprite":"eskadra","poiType":"company","poiName":"eskadra","secret":false},"geometry":{"type":"Point","coordinates":[31.220346794683806,58.86754152016442]}},{"type":"Feature","properties":{"type":"poi","sprite":"nch_ru","poiType":"company","poiName":"НКХ","secret":false},"geometry":{"type":"Point","coordinates":[30.74057954006846,59.53935257790514]}},{"type":"Feature","properties":{"type":"poi","sprite":"daf_dlr","poiType":"company","poiName":"daf_dlr","secret":false},"geometry":{"type":"Point","coordinates":[30.782620540442444,59.56935079922404]}},{"type":"Feature","properties":{"type":"poi","sprite":"ika_ru","poiType":"company","poiName":"ИКА мебель","secret":false},"geometry":{"type":"Point","coordinates":[30.9530340250511,59.95563543216762]}},{"type":"Feature","properties":{"type":"poi","sprite":"zelenye","poiType":"company","poiName":"Зелёные Поля OOO","secret":false},"geometry":{"type":"Point","coordinates":[31.34852235593712,59.97386068774417]}},{"type":"Feature","properties":{"type":"poi","sprite":"fintyre_ru","poiType":"company","poiName":"Финские шины","secret":false},"geometry":{"type":"Point","coordinates":[31.770647983698893,60.034073984435445]}},{"type":"Feature","properties":{"type":"poi","sprite":"radus_ru","poiType":"company","poiName":"Радус","secret":false},"geometry":{"type":"Point","coordinates":[31.284435682553948,60.01906785853123]}},{"type":"Feature","properties":{"type":"poi","sprite":"blt_ru","poiType":"company","poiName":"БЛТ","secret":false},"geometry":{"type":"Point","coordinates":[30.720816885926325,59.8678341127298]}},{"type":"Feature","properties":{"type":"poi","sprite":"pk_medved_ru","poiType":"company","poiName":"ПК Медведь","secret":false},"geometry":{"type":"Point","coordinates":[32.60482492291367,60.17558419977152]}},{"type":"Feature","properties":{"type":"poi","sprite":"suprema_ru","poiType":"company","poiName":"Супрема","secret":false},"geometry":{"type":"Point","coordinates":[32.59650931835058,59.975609218159846]}},{"type":"Feature","properties":{"type":"poi","sprite":"novoneft","poiType":"company","poiName":"novoneft","secret":false},"geometry":{"type":"Point","coordinates":[32.457591027427874,59.77952472756017]}},{"type":"Feature","properties":{"type":"poi","sprite":"vsk","poiType":"company","poiName":"vsk","secret":false},"geometry":{"type":"Point","coordinates":[31.925814750369437,59.731446481104165]}},{"type":"Feature","properties":{"type":"poi","sprite":"snl","poiType":"company","poiName":"snl","secret":false},"geometry":{"type":"Point","coordinates":[32.316953134940924,59.5859150017982]}},{"type":"Feature","properties":{"type":"poi","sprite":"ns_oil_ru","poiType":"company","poiName":"НС Ойл","secret":false},"geometry":{"type":"Point","coordinates":[32.252395432120146,60.02995079363863]}},{"type":"Feature","properties":{"type":"poi","sprite":"domdepo_ru","poiType":"company","poiName":"ДомДепо","secret":false},"geometry":{"type":"Point","coordinates":[32.560925310968294,60.01104178161344]}},{"type":"Feature","properties":{"type":"poi","sprite":"baltomors_ru","poiType":"company","poiName":"Балтоморск","secret":false},"geometry":{"type":"Point","coordinates":[32.64980191588526,60.17757204821397]}},{"type":"Feature","properties":{"type":"poi","sprite":"finist","poiType":"company","poiName":"finist","secret":false},"geometry":{"type":"Point","coordinates":[32.61570049140747,60.20910348359099]}},{"type":"Feature","properties":{"type":"poi","sprite":"ns_chem_ru","poiType":"company","poiName":"НС Химия","secret":false},"geometry":{"type":"Point","coordinates":[32.618410153470926,60.00896766641951]}},{"type":"Feature","properties":{"type":"poi","sprite":"radus_ru","poiType":"company","poiName":"Радус","secret":false},"geometry":{"type":"Point","coordinates":[32.28953160010108,59.75615017066891]}},{"type":"Feature","properties":{"type":"poi","sprite":"bcp","poiType":"company","poiName":"BCP","secret":false},"geometry":{"type":"Point","coordinates":[9.433725669812297,48.82489193219671]}},{"type":"Feature","properties":{"type":"poi","sprite":"stokes","poiType":"company","poiName":"Stokes","secret":false},"geometry":{"type":"Point","coordinates":[9.475206605199736,48.796838268768106]}},{"type":"Feature","properties":{"type":"poi","sprite":"euroacres","poiType":"company","poiName":"EuroAcres","secret":false},"geometry":{"type":"Point","coordinates":[10.426410094540923,45.69308493003664]}},{"type":"Feature","properties":{"type":"poi","sprite":"bcp","poiType":"company","poiName":"BCP","secret":false},"geometry":{"type":"Point","coordinates":[10.704282813171636,45.420576505203265]}},{"type":"Feature","properties":{"type":"poi","sprite":"ini","poiType":"company","poiName":"Ini","secret":false},"geometry":{"type":"Point","coordinates":[10.69822138907864,45.09674515784904]}},{"type":"Feature","properties":{"type":"poi","sprite":"posped","poiType":"company","poiName":"Posped","secret":false},"geometry":{"type":"Point","coordinates":[10.750915345290599,45.426549972578876]}},{"type":"Feature","properties":{"type":"poi","sprite":"kaarfor","poiType":"company","poiName":"Kaarfor","secret":false},"geometry":{"type":"Point","coordinates":[10.782400767545436,45.43262395160859]}},{"type":"Feature","properties":{"type":"poi","sprite":"transinet","poiType":"company","poiName":"TransiNet","secret":false},"geometry":{"type":"Point","coordinates":[9.25473342932068,51.27639520853754]}},{"type":"Feature","properties":{"type":"poi","sprite":"tradeaux","poiType":"company","poiName":"Tradeaux","secret":false},"geometry":{"type":"Point","coordinates":[9.664076109757975,51.18505660368258]}},{"type":"Feature","properties":{"type":"poi","sprite":"ai","poiType":"company","poiName":"AI Automotive","secret":false},"geometry":{"type":"Point","coordinates":[9.293303364609535,51.29719300230171]}},{"type":"Feature","properties":{"type":"poi","sprite":"eurogoodies","poiType":"company","poiName":"EuroGoodies","secret":false},"geometry":{"type":"Point","coordinates":[9.697739508566556,51.179093712587665]}},{"type":"Feature","properties":{"type":"poi","sprite":"kaarfor","poiType":"company","poiName":"Kaarfor","secret":false},"geometry":{"type":"Point","coordinates":[9.587896045202514,51.200676426841554]}},{"type":"Feature","properties":{"type":"poi","sprite":"sanbuild_cem","poiType":"company","poiName":"Sanbuilders","secret":false},"geometry":{"type":"Point","coordinates":[9.863311455416143,52.38368146623297]}},{"type":"Feature","properties":{"type":"poi","sprite":"fcp","poiType":"company","poiName":"FCP","secret":false},"geometry":{"type":"Point","coordinates":[9.480157089649808,52.36800809927753]}},{"type":"Feature","properties":{"type":"poi","sprite":"han_expo","poiType":"company","poiName":"Hannover Expo","secret":false},"geometry":{"type":"Point","coordinates":[9.50344060162554,52.028527203945636]}},{"type":"Feature","properties":{"type":"poi","sprite":"tradeaux","poiType":"company","poiName":"Tradeaux","secret":false},"geometry":{"type":"Point","coordinates":[9.971201886400346,52.26786665477947]}},{"type":"Feature","properties":{"type":"poi","sprite":"ai","poiType":"company","poiName":"AI Automotive","secret":false},"geometry":{"type":"Point","coordinates":[9.303362970422176,52.35604549387962]}},{"type":"Feature","properties":{"type":"poi","sprite":"scania_dlr","poiType":"company","poiName":"Scania","secret":false},"geometry":{"type":"Point","coordinates":[9.758779975731615,52.44815660516756]}},{"type":"Feature","properties":{"type":"poi","sprite":"quarry","poiType":"company","poiName":"Steinbruch","secret":false},"geometry":{"type":"Point","coordinates":[9.952256248831027,52.407830809423935]}},{"type":"Feature","properties":{"type":"poi","sprite":"ns_oil","poiType":"company","poiName":"NS Oil","secret":false},"geometry":{"type":"Point","coordinates":[9.61664373599326,53.43198031394599]}},{"type":"Feature","properties":{"type":"poi","sprite":"euroacres","poiType":"company","poiName":"EuroAcres","secret":false},"geometry":{"type":"Point","coordinates":[9.268016988206199,52.94022082178707]}},{"type":"Feature","properties":{"type":"poi","sprite":"cont_port","poiType":"company","poiName":"Container port","secret":false},"geometry":{"type":"Point","coordinates":[9.295507056892685,53.494296238219015]}},{"type":"Feature","properties":{"type":"poi","sprite":"rt_log","poiType":"company","poiName":"RT Log","secret":false},"geometry":{"type":"Point","coordinates":[9.19866706141189,53.52036729088357]}},{"type":"Feature","properties":{"type":"poi","sprite":"ai","poiType":"company","poiName":"AI Automotive","secret":false},"geometry":{"type":"Point","coordinates":[9.684341716498583,53.55589983601949]}},{"type":"Feature","properties":{"type":"poi","sprite":"dfh","poiType":"company","poiName":"Deutsche Frachthäfen","secret":false},"geometry":{"type":"Point","coordinates":[9.630006722911169,53.5384417394236]}},{"type":"Feature","properties":{"type":"poi","sprite":"transinet","poiType":"company","poiName":"TransiNet","secret":false},"geometry":{"type":"Point","coordinates":[8.484036775428173,50.23318233535294]}},{"type":"Feature","properties":{"type":"poi","sprite":"sanbuild_cem","poiType":"company","poiName":"Sanbuilders","secret":false},"geometry":{"type":"Point","coordinates":[8.59921495299812,50.05466928858969]}},{"type":"Feature","properties":{"type":"poi","sprite":"domdepo","poiType":"company","poiName":"DomDepo","secret":false},"geometry":{"type":"Point","coordinates":[8.91502126600134,50.10334420187347]}},{"type":"Feature","properties":{"type":"poi","sprite":"ns_oil","poiType":"company","poiName":"NS Oil","secret":false},"geometry":{"type":"Point","coordinates":[8.838175808584639,49.999687655882155]}},{"type":"Feature","properties":{"type":"poi","sprite":"ika_bohag","poiType":"company","poiName":"Ika Bohag","secret":false},"geometry":{"type":"Point","coordinates":[8.527553957791756,50.24555624737825]}},{"type":"Feature","properties":{"type":"poi","sprite":"lkwlog","poiType":"company","poiName":"LkwLog GmbH","secret":false},"geometry":{"type":"Point","coordinates":[8.896916040728739,50.06222775037827]}},{"type":"Feature","properties":{"type":"poi","sprite":"wgcc","poiType":"company","poiName":"WGCC","secret":false},"geometry":{"type":"Point","coordinates":[8.217018820140785,49.96981361469628]}},{"type":"Feature","properties":{"type":"poi","sprite":"tree_et","poiType":"company","poiName":"Tree-ET","secret":false},"geometry":{"type":"Point","coordinates":[8.729414576549706,49.221613522649825]}},{"type":"Feature","properties":{"type":"poi","sprite":"sanbuild_hms","poiType":"company","poiName":"Sanbuilders","secret":false},"geometry":{"type":"Point","coordinates":[8.281426778255634,49.331141862359544]}},{"type":"Feature","properties":{"type":"poi","sprite":"transinet","poiType":"company","poiName":"TransiNet","secret":false},"geometry":{"type":"Point","coordinates":[8.282935977934152,49.3544469731759]}},{"type":"Feature","properties":{"type":"poi","sprite":"quarry","poiType":"company","poiName":"Steinbruch","secret":false},"geometry":{"type":"Point","coordinates":[8.99418569087456,49.17631957780799]}},{"type":"Feature","properties":{"type":"poi","sprite":"fle","poiType":"company","poiName":"FLE","secret":false},"geometry":{"type":"Point","coordinates":[9.26708494719698,48.52581692563318]}},{"type":"Feature","properties":{"type":"poi","sprite":"sanbuild_bas","poiType":"company","poiName":"Sanbuilders","secret":false},"geometry":{"type":"Point","coordinates":[9.222254971636161,48.87119540751758]}},{"type":"Feature","properties":{"type":"poi","sprite":"quarry","poiType":"company","poiName":"Steinbruch","secret":false},"geometry":{"type":"Point","coordinates":[9.429062099512636,46.87672436940959]}},{"type":"Feature","properties":{"type":"poi","sprite":"spinelli","poiType":"company","poiName":"Spinelli","secret":false},"geometry":{"type":"Point","coordinates":[8.902073631258405,45.680990537769084]}},{"type":"Feature","properties":{"type":"poi","sprite":"cargotras","poiType":"company","poiName":"Cargotras","secret":false},"geometry":{"type":"Point","coordinates":[9.162367536288304,45.41968928578991]}},{"type":"Feature","properties":{"type":"poi","sprite":"aci","poiType":"company","poiName":"ACI SRL","secret":false},"geometry":{"type":"Point","coordinates":[9.546487669291274,45.388890073091254]}},{"type":"Feature","properties":{"type":"poi","sprite":"scania_dlr","poiType":"company","poiName":"Scania","secret":false},"geometry":{"type":"Point","coordinates":[9.337781932134378,45.435703009240946]}},{"type":"Feature","properties":{"type":"poi","sprite":"cesare_smar","poiType":"company","poiName":"Cesare Supermercato","secret":false},"geometry":{"type":"Point","coordinates":[8.897705379424172,45.333652825123764]}},{"type":"Feature","properties":{"type":"poi","sprite":"ika_bohag","poiType":"company","poiName":"Ika Bohag","secret":false},"geometry":{"type":"Point","coordinates":[8.894804795884605,45.27392988401481]}},{"type":"Feature","properties":{"type":"poi","sprite":"piac","poiType":"company","poiName":"PIAC","secret":false},"geometry":{"type":"Point","coordinates":[9.694804248211659,44.87151767750625]}},{"type":"Feature","properties":{"type":"poi","sprite":"exomar","poiType":"company","poiName":"Exomar","secret":false},"geometry":{"type":"Point","coordinates":[9.593563161242724,40.89374727283751]}},{"type":"Feature","properties":{"type":"poi","sprite":"c_navale","poiType":"company","poiName":"Cantiere Navale","secret":false},"geometry":{"type":"Point","coordinates":[9.621760845117244,40.837822180020225]}},{"type":"Feature","properties":{"type":"poi","sprite":"cargotras","poiType":"company","poiName":"Cargotras","secret":false},"geometry":{"type":"Point","coordinates":[9.466972568517162,40.8487549214547]}},{"type":"Feature","properties":{"type":"poi","sprite":"euroacres","poiType":"company","poiName":"EuroAcres","secret":false},"geometry":{"type":"Point","coordinates":[7.945586147094705,52.29854563548459]}},{"type":"Feature","properties":{"type":"poi","sprite":"itcc","poiType":"company","poiName":"ITCC","secret":false},"geometry":{"type":"Point","coordinates":[7.912240472936221,52.199850290278086]}},{"type":"Feature","properties":{"type":"poi","sprite":"shuttle","poiType":"company","poiName":"Shuttle Cola","secret":false},"geometry":{"type":"Point","coordinates":[8.401845772822815,52.99479521845711]}},{"type":"Feature","properties":{"type":"poi","sprite":"ai","poiType":"company","poiName":"AI Automotive","secret":false},"geometry":{"type":"Point","coordinates":[8.74151616336127,53.05211205294221]}},{"type":"Feature","properties":{"type":"poi","sprite":"dfh","poiType":"company","poiName":"Deutsche Frachthäfen","secret":false},"geometry":{"type":"Point","coordinates":[8.377726860399244,53.10725266263197]}},{"type":"Feature","properties":{"type":"poi","sprite":"tdc_auto","poiType":"company","poiName":"TDC Auto Terminal","secret":false},"geometry":{"type":"Point","coordinates":[8.52294692330871,53.54582158069638]}},{"type":"Feature","properties":{"type":"poi","sprite":"cont_port","poiType":"company","poiName":"Container port","secret":false},"geometry":{"type":"Point","coordinates":[8.354165759711622,53.58089364323508]}},{"type":"Feature","properties":{"type":"poi","sprite":"fle","poiType":"company","poiName":"FLE","secret":false},"geometry":{"type":"Point","coordinates":[7.990914558528535,49.93624862138162]}},{"type":"Feature","properties":{"type":"poi","sprite":"wgcc","poiType":"company","poiName":"WGCC","secret":false},"geometry":{"type":"Point","coordinates":[8.15818971497021,49.60063429660331]}},{"type":"Feature","properties":{"type":"poi","sprite":"posped","poiType":"company","poiName":"Posped","secret":false},"geometry":{"type":"Point","coordinates":[7.592921861261777,48.460093845827224]}},{"type":"Feature","properties":{"type":"poi","sprite":"kaarfor","poiType":"company","poiName":"Kaarfor","secret":false},"geometry":{"type":"Point","coordinates":[7.5313790785807,48.43947526527985]}},{"type":"Feature","properties":{"type":"poi","sprite":"wgcc","poiType":"company","poiName":"WGCC","secret":false},"geometry":{"type":"Point","coordinates":[7.602551608892364,48.4463080991552]}},{"type":"Feature","properties":{"type":"poi","sprite":"trameri","poiType":"company","poiName":"Trameri","secret":false},"geometry":{"type":"Point","coordinates":[7.5824971348590795,48.44275942030832]}},{"type":"Feature","properties":{"type":"poi","sprite":"euroacres","poiType":"company","poiName":"EuroAcres","secret":false},"geometry":{"type":"Point","coordinates":[8.093346389558594,47.90190060293266]}},{"type":"Feature","properties":{"type":"poi","sprite":"kathode","poiType":"company","poiName":"Kathode","secret":false},"geometry":{"type":"Point","coordinates":[8.265655394933074,47.47505184118144]}},{"type":"Feature","properties":{"type":"poi","sprite":"rt_log","poiType":"company","poiName":"RT Log","secret":false},"geometry":{"type":"Point","coordinates":[8.233176105596494,47.287270572489234]}},{"type":"Feature","properties":{"type":"poi","sprite":"ns_oil","poiType":"company","poiName":"NS Oil","secret":false},"geometry":{"type":"Point","coordinates":[8.12908452640401,47.64549144003385]}},{"type":"Feature","properties":{"type":"poi","sprite":"stokes","poiType":"company","poiName":"Stokes","secret":false},"geometry":{"type":"Point","coordinates":[8.128608229986757,47.24479164342634]}},{"type":"Feature","properties":{"type":"poi","sprite":"euroacres","poiType":"company","poiName":"EuroAcres","secret":false},"geometry":{"type":"Point","coordinates":[7.839741785641924,46.32019967788558]}},{"type":"Feature","properties":{"type":"poi","sprite":"sanbuilders","poiType":"company","poiName":"Sanbuilders","secret":false},"geometry":{"type":"Point","coordinates":[7.611916389563889,46.7688136400588]}},{"type":"Feature","properties":{"type":"poi","sprite":"libellula","poiType":"company","poiName":"Libellula","secret":false},"geometry":{"type":"Point","coordinates":[8.468638033538348,45.523186574881656]}},{"type":"Feature","properties":{"type":"poi","sprite":"tesore_gust","poiType":"company","poiName":"Tesoro Gustoso","secret":false},"geometry":{"type":"Point","coordinates":[8.644303819619601,45.44119483538763]}},{"type":"Feature","properties":{"type":"poi","sprite":"costruzi_hal","poiType":"company","poiName":"Costruzione di Edifici","secret":false},"geometry":{"type":"Point","coordinates":[8.76411895162747,44.31866897991953]}},{"type":"Feature","properties":{"type":"poi","sprite":"aci","poiType":"company","poiName":"ACI SRL","secret":false},"geometry":{"type":"Point","coordinates":[8.632601640087227,44.34655013699164]}},{"type":"Feature","properties":{"type":"poi","sprite":"cont_port_it","poiType":"company","poiName":"Terminal Container","secret":false},"geometry":{"type":"Point","coordinates":[8.824474415287565,44.31821729957821]}},{"type":"Feature","properties":{"type":"poi","sprite":"marina","poiType":"company","poiName":"Marina","secret":false},"geometry":{"type":"Point","coordinates":[8.604757821293036,44.338230772753896]}},{"type":"Feature","properties":{"type":"poi","sprite":"tras_med","poiType":"company","poiName":"Trasporti Mediterraneo","secret":false},"geometry":{"type":"Point","coordinates":[8.832960575167883,44.32884899649781]}},{"type":"Feature","properties":{"type":"poi","sprite":"marina","poiType":"company","poiName":"Marina","secret":false},"geometry":{"type":"Point","coordinates":[9.191777071790463,41.21007552776632]}},{"type":"Feature","properties":{"type":"poi","sprite":"te_logistica","poiType":"company","poiName":"TE Logistica","secret":false},"geometry":{"type":"Point","coordinates":[8.59977354287522,40.77376426507004]}},{"type":"Feature","properties":{"type":"poi","sprite":"cesare_smar","poiType":"company","poiName":"Cesare Supermercato","secret":false},"geometry":{"type":"Point","coordinates":[8.494526393404918,40.80530537190011]}},{"type":"Feature","properties":{"type":"poi","sprite":"marina","poiType":"company","poiName":"Marina","secret":false},"geometry":{"type":"Point","coordinates":[9.0950899232563,41.374931508497134]}},{"type":"Feature","properties":{"type":"poi","sprite":"costruzi_hal","poiType":"company","poiName":"Costruzione di Edifici","secret":false},"geometry":{"type":"Point","coordinates":[8.648214907581712,40.785826520213085]}},{"type":"Feature","properties":{"type":"poi","sprite":"cargotras","poiType":"company","poiName":"Cargotras","secret":false},"geometry":{"type":"Point","coordinates":[8.53779467484575,40.76523888023841]}},{"type":"Feature","properties":{"type":"poi","sprite":"lkwlog","poiType":"company","poiName":"LkwLog GmbH","secret":false},"geometry":{"type":"Point","coordinates":[6.981350858126561,50.79658877432104]}},{"type":"Feature","properties":{"type":"poi","sprite":"rt_log","poiType":"company","poiName":"RT Log","secret":false},"geometry":{"type":"Point","coordinates":[7.039125732088212,50.789196284648824]}},{"type":"Feature","properties":{"type":"poi","sprite":"eurogoodies","poiType":"company","poiName":"EuroGoodies","secret":false},"geometry":{"type":"Point","coordinates":[6.929786068228435,50.81340170445129]}},{"type":"Feature","properties":{"type":"poi","sprite":"lkwlog","poiType":"company","poiName":"LkwLog GmbH","secret":false},"geometry":{"type":"Point","coordinates":[7.005366351727951,51.69725364329557]}},{"type":"Feature","properties":{"type":"poi","sprite":"ika_bohag","poiType":"company","poiName":"Ika Bohag","secret":false},"geometry":{"type":"Point","coordinates":[7.115343785481521,51.77461171410045]}},{"type":"Feature","properties":{"type":"poi","sprite":"eurogoodies","poiType":"company","poiName":"EuroGoodies","secret":false},"geometry":{"type":"Point","coordinates":[7.163808145726867,51.5053921386141]}},{"type":"Feature","properties":{"type":"poi","sprite":"itcc","poiType":"company","poiName":"ITCC","secret":false},"geometry":{"type":"Point","coordinates":[7.116517933974948,51.61747514267613]}},{"type":"Feature","properties":{"type":"poi","sprite":"sanbuild_cem","poiType":"company","poiName":"Sanbuilders","secret":false},"geometry":{"type":"Point","coordinates":[7.091875882028321,51.69328481554079]}},{"type":"Feature","properties":{"type":"poi","sprite":"steinbr_str","poiType":"company","poiName":"Steinbruch","secret":false},"geometry":{"type":"Point","coordinates":[7.050292118908931,51.686082428495176]}},{"type":"Feature","properties":{"type":"poi","sprite":"itcc_scrap","poiType":"company","poiName":"ITCC","secret":false},"geometry":{"type":"Point","coordinates":[7.750514452270628,52.21671474786661]}},{"type":"Feature","properties":{"type":"poi","sprite":"lkwlog","poiType":"company","poiName":"LkwLog GmbH","secret":false},"geometry":{"type":"Point","coordinates":[7.754832132472805,52.320982104572884]}},{"type":"Feature","properties":{"type":"poi","sprite":"krone","poiType":"company","poiName":"Krone","secret":false},"geometry":{"type":"Point","coordinates":[7.4444637227111645,52.76766190635391]}},{"type":"Feature","properties":{"type":"poi","sprite":"krone_t","poiType":"company","poiName":"Krone","secret":false},"geometry":{"type":"Point","coordinates":[7.337434576881604,52.70879168291888]}},{"type":"Feature","properties":{"type":"poi","sprite":"stokes","poiType":"company","poiName":"Stokes","secret":false},"geometry":{"type":"Point","coordinates":[6.4546950024356216,53.14281842935329]}},{"type":"Feature","properties":{"type":"poi","sprite":"sanbuild_hal","poiType":"company","poiName":"sanbuild_hal","secret":false},"geometry":{"type":"Point","coordinates":[6.002545440453993,49.714918481172894]}},{"type":"Feature","properties":{"type":"poi","sprite":"quarry","poiType":"company","poiName":"Steinbruch","secret":false},"geometry":{"type":"Point","coordinates":[6.666017977125542,48.04099613924863]}},{"type":"Feature","properties":{"type":"poi","sprite":"charmey","poiType":"company","poiName":"Charmey","secret":false},"geometry":{"type":"Point","coordinates":[7.035266541922798,46.92339186544064]}},{"type":"Feature","properties":{"type":"poi","sprite":"sellplan","poiType":"company","poiName":"SellPlan","secret":false},"geometry":{"type":"Point","coordinates":[7.102783482219319,46.92956097370199]}},{"type":"Feature","properties":{"type":"poi","sprite":"rt_log","poiType":"company","poiName":"RT Log","secret":false},"geometry":{"type":"Point","coordinates":[7.353534508219478,46.9189803639633]}},{"type":"Feature","properties":{"type":"poi","sprite":"tree_et","poiType":"company","poiName":"Tree-ET","secret":false},"geometry":{"type":"Point","coordinates":[7.299433411901839,46.44526352797167]}},{"type":"Feature","properties":{"type":"poi","sprite":"euroacres","poiType":"company","poiName":"EuroAcres","secret":false},"geometry":{"type":"Point","coordinates":[7.692258954613162,45.2961937234034]}},{"type":"Feature","properties":{"type":"poi","sprite":"fcp","poiType":"company","poiName":"FCP","secret":false},"geometry":{"type":"Point","coordinates":[7.566755702107899,44.9876346706983]}},{"type":"Feature","properties":{"type":"poi","sprite":"sellplan","poiType":"company","poiName":"SellPlan","secret":false},"geometry":{"type":"Point","coordinates":[7.6289897171506755,44.96269269130722]}},{"type":"Feature","properties":{"type":"poi","sprite":"transinet","poiType":"company","poiName":"TransiNet","secret":false},"geometry":{"type":"Point","coordinates":[7.573347206237568,44.966794837697485]}},{"type":"Feature","properties":{"type":"poi","sprite":"eolo_lines","poiType":"company","poiName":"Eolo Lines","secret":false},"geometry":{"type":"Point","coordinates":[8.25698778040291,40.88468015808815]}},{"type":"Feature","properties":{"type":"poi","sprite":"fcp","poiType":"company","poiName":"FCP","secret":false},"geometry":{"type":"Point","coordinates":[6.255530095366378,51.095129502853545]}},{"type":"Feature","properties":{"type":"poi","sprite":"eurogoodies","poiType":"company","poiName":"EuroGoodies","secret":false},"geometry":{"type":"Point","coordinates":[6.698407823546911,51.1360039044555]}},{"type":"Feature","properties":{"type":"poi","sprite":"sellplan","poiType":"company","poiName":"SellPlan","secret":false},"geometry":{"type":"Point","coordinates":[6.82180201645919,50.73674767590677]}},{"type":"Feature","properties":{"type":"poi","sprite":"itcc_scrap","poiType":"company","poiName":"ITCC","secret":false},"geometry":{"type":"Point","coordinates":[6.772782158683191,50.71550850818347]}},{"type":"Feature","properties":{"type":"poi","sprite":"sanbuild_bas","poiType":"company","poiName":"Sanbuilders","secret":false},"geometry":{"type":"Point","coordinates":[6.8604602202969005,50.76050343402548]}},{"type":"Feature","properties":{"type":"poi","sprite":"fle","poiType":"company","poiName":"FLE","secret":false},"geometry":{"type":"Point","coordinates":[6.22877760060922,51.37806625653959]}},{"type":"Feature","properties":{"type":"poi","sprite":"cont_port","poiType":"company","poiName":"Container port","secret":false},"geometry":{"type":"Point","coordinates":[6.173043871068833,51.72287757485123]}},{"type":"Feature","properties":{"type":"poi","sprite":"kathode","poiType":"company","poiName":"Kathode","secret":false},"geometry":{"type":"Point","coordinates":[6.679009664402744,51.262730781497936]}},{"type":"Feature","properties":{"type":"poi","sprite":"itcc","poiType":"company","poiName":"ITCC","secret":false},"geometry":{"type":"Point","coordinates":[6.506535607665691,51.16250103399675]}},{"type":"Feature","properties":{"type":"poi","sprite":"dfh","poiType":"company","poiName":"Deutsche Frachthäfen","secret":false},"geometry":{"type":"Point","coordinates":[6.1326083772767435,51.737784234823145]}},{"type":"Feature","properties":{"type":"poi","sprite":"tradeaux","poiType":"company","poiName":"Tradeaux","secret":false},"geometry":{"type":"Point","coordinates":[6.709266225446334,51.15877375371568]}},{"type":"Feature","properties":{"type":"poi","sprite":"cnp","poiType":"company","poiName":"CNP","secret":false},"geometry":{"type":"Point","coordinates":[6.17557634011577,51.52617857047561]}},{"type":"Feature","properties":{"type":"poi","sprite":"lkwlog","poiType":"company","poiName":"LkwLog GmbH","secret":false},"geometry":{"type":"Point","coordinates":[6.1027961691720165,51.52600989892492]}},{"type":"Feature","properties":{"type":"poi","sprite":"kaarfor","poiType":"company","poiName":"Kaarfor","secret":false},"geometry":{"type":"Point","coordinates":[5.987092169476437,51.728033464750126]}},{"type":"Feature","properties":{"type":"poi","sprite":"itcc","poiType":"company","poiName":"ITCC","secret":false},"geometry":{"type":"Point","coordinates":[6.108449613678698,51.871000472071]}},{"type":"Feature","properties":{"type":"poi","sprite":"primel","poiType":"company","poiName":"Primel","secret":false},"geometry":{"type":"Point","coordinates":[5.995606555730671,52.58222939249299]}},{"type":"Feature","properties":{"type":"poi","sprite":"euroacres","poiType":"company","poiName":"EuroAcres","secret":false},"geometry":{"type":"Point","coordinates":[5.484423522843166,52.72999254590308]}},{"type":"Feature","properties":{"type":"poi","sprite":"ika_bohag","poiType":"company","poiName":"Ika Bohag","secret":false},"geometry":{"type":"Point","coordinates":[6.274952562118904,53.219022371244506]}},{"type":"Feature","properties":{"type":"poi","sprite":"sanbuild_win","poiType":"company","poiName":"Sanbuilders","secret":false},"geometry":{"type":"Point","coordinates":[5.3700937019823645,53.12099793607957]}},{"type":"Feature","properties":{"type":"poi","sprite":"suikersmij","poiType":"company","poiName":"suikersmij","secret":false},"geometry":{"type":"Point","coordinates":[5.8879937211067395,53.17735695701115]}},{"type":"Feature","properties":{"type":"poi","sprite":"eurogoodies","poiType":"company","poiName":"EuroGoodies","secret":false},"geometry":{"type":"Point","coordinates":[6.4368299378769835,53.154043006810184]}},{"type":"Feature","properties":{"type":"poi","sprite":"primel","poiType":"company","poiName":"Primel","secret":false},"geometry":{"type":"Point","coordinates":[5.662365438615757,49.860914003020575]}},{"type":"Feature","properties":{"type":"poi","sprite":"volvo_dlr","poiType":"company","poiName":"Volvo","secret":false},"geometry":{"type":"Point","coordinates":[5.942841117903955,49.84941233962019]}},{"type":"Feature","properties":{"type":"poi","sprite":"lkwlog","poiType":"company","poiName":"LkwLog GmbH","secret":false},"geometry":{"type":"Point","coordinates":[5.9057831316796054,49.79460973687883]}},{"type":"Feature","properties":{"type":"poi","sprite":"tree_et","poiType":"company","poiName":"Tree-ET","secret":false},"geometry":{"type":"Point","coordinates":[5.573778714851664,50.20538326595139]}},{"type":"Feature","properties":{"type":"poi","sprite":"itcc","poiType":"company","poiName":"ITCC","secret":false},"geometry":{"type":"Point","coordinates":[5.933242050747488,49.81452094717491]}},{"type":"Feature","properties":{"type":"poi","sprite":"quarry","poiType":"company","poiName":"Steinbruch","secret":false},"geometry":{"type":"Point","coordinates":[4.877792467333571,50.0326310151757]}},{"type":"Feature","properties":{"type":"poi","sprite":"sellplan","poiType":"company","poiName":"SellPlan","secret":false},"geometry":{"type":"Point","coordinates":[5.820801292424381,49.7788708987468]}},{"type":"Feature","properties":{"type":"poi","sprite":"eurogoodies","poiType":"company","poiName":"EuroGoodies","secret":false},"geometry":{"type":"Point","coordinates":[6.007003524432687,49.014577110934454]}},{"type":"Feature","properties":{"type":"poi","sprite":"posped","poiType":"company","poiName":"Posped","secret":false},"geometry":{"type":"Point","coordinates":[6.054347879759704,49.03379796341497]}},{"type":"Feature","properties":{"type":"poi","sprite":"tree_et","poiType":"company","poiName":"Tree-ET","secret":false},"geometry":{"type":"Point","coordinates":[5.692846826796725,49.13847585696157]}},{"type":"Feature","properties":{"type":"poi","sprite":"quarry","poiType":"company","poiName":"Steinbruch","secret":false},"geometry":{"type":"Point","coordinates":[6.410093093823715,46.89607903200599]}},{"type":"Feature","properties":{"type":"poi","sprite":"sellplan","poiType":"company","poiName":"SellPlan","secret":false},"geometry":{"type":"Point","coordinates":[6.072849516845068,46.20939832150713]}},{"type":"Feature","properties":{"type":"poi","sprite":"kathode","poiType":"company","poiName":"Kathode","secret":false},"geometry":{"type":"Point","coordinates":[5.908887998614763,46.11771838906335]}},{"type":"Feature","properties":{"type":"poi","sprite":"charmey","poiType":"company","poiName":"Charmey","secret":false},"geometry":{"type":"Point","coordinates":[6.495441208832426,46.45004991473512]}},{"type":"Feature","properties":{"type":"poi","sprite":"rt_log","poiType":"company","poiName":"RT Log","secret":false},"geometry":{"type":"Point","coordinates":[6.15383799007864,46.08269846273225]}},{"type":"Feature","properties":{"type":"poi","sprite":"euroacres","poiType":"company","poiName":"EuroAcres","secret":false},"geometry":{"type":"Point","coordinates":[5.791970994423413,46.06150177929189]}},{"type":"Feature","properties":{"type":"poi","sprite":"euroflow","poiType":"company","poiName":"euroflow","secret":false},"geometry":{"type":"Point","coordinates":[5.474672404300329,50.54627103158277]}},{"type":"Feature","properties":{"type":"poi","sprite":"shuttle","poiType":"company","poiName":"Shuttle Cola","secret":false},"geometry":{"type":"Point","coordinates":[5.557619370390523,50.42608042586645]}},{"type":"Feature","properties":{"type":"poi","sprite":"primel","poiType":"company","poiName":"Primel","secret":false},"geometry":{"type":"Point","coordinates":[5.459598400068505,51.42600899195135]}},{"type":"Feature","properties":{"type":"poi","sprite":"daf_fac","poiType":"company","poiName":"daf_fac","secret":false},"geometry":{"type":"Point","coordinates":[5.301027727344394,51.61044114447082]}},{"type":"Feature","properties":{"type":"poi","sprite":"lkwlog","poiType":"company","poiName":"LkwLog GmbH","secret":false},"geometry":{"type":"Point","coordinates":[5.046429451497977,51.50086933353788]}},{"type":"Feature","properties":{"type":"poi","sprite":"kathode","poiType":"company","poiName":"Kathode","secret":false},"geometry":{"type":"Point","coordinates":[5.069327761938941,51.46909467299359]}},{"type":"Feature","properties":{"type":"poi","sprite":"primel","poiType":"company","poiName":"Primel","secret":false},"geometry":{"type":"Point","coordinates":[5.234493264552465,52.2649460271201]}},{"type":"Feature","properties":{"type":"poi","sprite":"sellplan","poiType":"company","poiName":"SellPlan","secret":false},"geometry":{"type":"Point","coordinates":[4.790183037719028,52.01858664712504]}},{"type":"Feature","properties":{"type":"poi","sprite":"stokes","poiType":"company","poiName":"Stokes","secret":false},"geometry":{"type":"Point","coordinates":[4.589036692240829,52.349911291027844]}},{"type":"Feature","properties":{"type":"poi","sprite":"daf_dlr","poiType":"company","poiName":"daf_dlr","secret":false},"geometry":{"type":"Point","coordinates":[4.609154911007671,52.35208246637041]}},{"type":"Feature","properties":{"type":"poi","sprite":"itcc","poiType":"company","poiName":"ITCC","secret":false},"geometry":{"type":"Point","coordinates":[4.336465695279702,52.48388918594443]}},{"type":"Feature","properties":{"type":"poi","sprite":"stronghold","poiType":"company","poiName":"stronghold","secret":false},"geometry":{"type":"Point","coordinates":[4.383321432407455,52.49598368579709]}},{"type":"Feature","properties":{"type":"poi","sprite":"tdc_auto","poiType":"company","poiName":"TDC Auto Terminal","secret":false},"geometry":{"type":"Point","coordinates":[4.511226036873252,52.48296510529486]}},{"type":"Feature","properties":{"type":"poi","sprite":"ns_oil","poiType":"company","poiName":"NS Oil","secret":false},"geometry":{"type":"Point","coordinates":[4.570989240381985,52.43115803657892]}},{"type":"Feature","properties":{"type":"poi","sprite":"quarry","poiType":"company","poiName":"Steinbruch","secret":false},"geometry":{"type":"Point","coordinates":[4.43727632240687,49.73254287945178]}},{"type":"Feature","properties":{"type":"poi","sprite":"euroacres","poiType":"company","poiName":"EuroAcres","secret":false},"geometry":{"type":"Point","coordinates":[4.258752103060653,49.24042039418572]}},{"type":"Feature","properties":{"type":"poi","sprite":"stokes","poiType":"company","poiName":"Stokes","secret":false},"geometry":{"type":"Point","coordinates":[4.757335657381124,47.28900223922019]}},{"type":"Feature","properties":{"type":"poi","sprite":"euroacres","poiType":"company","poiName":"EuroAcres","secret":false},"geometry":{"type":"Point","coordinates":[5.097551396154814,47.23724030578289]}},{"type":"Feature","properties":{"type":"poi","sprite":"eurogoodies","poiType":"company","poiName":"EuroGoodies","secret":false},"geometry":{"type":"Point","coordinates":[4.7526422368318135,47.318318469658664]}},{"type":"Feature","properties":{"type":"poi","sprite":"tradeaux","poiType":"company","poiName":"Tradeaux","secret":false},"geometry":{"type":"Point","coordinates":[5.047206546467673,45.69328472515646]}},{"type":"Feature","properties":{"type":"poi","sprite":"trameri","poiType":"company","poiName":"Trameri","secret":false},"geometry":{"type":"Point","coordinates":[4.9589058819404,45.697076060024955]}},{"type":"Feature","properties":{"type":"poi","sprite":"quarry","poiType":"company","poiName":"Steinbruch","secret":false},"geometry":{"type":"Point","coordinates":[5.380832677459004,45.62699959676359]}},{"type":"Feature","properties":{"type":"poi","sprite":"fcp","poiType":"company","poiName":"FCP","secret":false},"geometry":{"type":"Point","coordinates":[4.179760163910181,50.57150434996465]}},{"type":"Feature","properties":{"type":"poi","sprite":"transinet","poiType":"company","poiName":"TransiNet","secret":false},"geometry":{"type":"Point","coordinates":[4.082739664566353,50.63094075949336]}},{"type":"Feature","properties":{"type":"poi","sprite":"sanbuilders","poiType":"company","poiName":"Sanbuilders","secret":false},"geometry":{"type":"Point","coordinates":[4.214830111618435,50.799844358074715]}},{"type":"Feature","properties":{"type":"poi","sprite":"wgcc","poiType":"company","poiName":"WGCC","secret":false},"geometry":{"type":"Point","coordinates":[4.054578350218489,50.50149210926384]}},{"type":"Feature","properties":{"type":"poi","sprite":"eurogoodies","poiType":"company","poiName":"EuroGoodies","secret":false},"geometry":{"type":"Point","coordinates":[4.041666060023959,50.668906482696926]}},{"type":"Feature","properties":{"type":"poi","sprite":"cont_port","poiType":"company","poiName":"Container port","secret":false},"geometry":{"type":"Point","coordinates":[3.692441135291542,51.43900854309347]}},{"type":"Feature","properties":{"type":"poi","sprite":"wgcc","poiType":"company","poiName":"WGCC","secret":false},"geometry":{"type":"Point","coordinates":[3.7566661400348282,51.398443729825274]}},{"type":"Feature","properties":{"type":"poi","sprite":"sanbuild_win","poiType":"company","poiName":"Sanbuilders","secret":false},"geometry":{"type":"Point","coordinates":[3.3975436796793703,51.51946289945842]}},{"type":"Feature","properties":{"type":"poi","sprite":"euroflow","poiType":"company","poiName":"euroflow","secret":false},"geometry":{"type":"Point","coordinates":[4.06120264916728,51.289019823285]}},{"type":"Feature","properties":{"type":"poi","sprite":"sellplan","poiType":"company","poiName":"SellPlan","secret":false},"geometry":{"type":"Point","coordinates":[4.129733446381813,51.29993757873885]}},{"type":"Feature","properties":{"type":"poi","sprite":"cont_port","poiType":"company","poiName":"Container port","secret":false},"geometry":{"type":"Point","coordinates":[4.287729876327265,51.803838660387186]}},{"type":"Feature","properties":{"type":"poi","sprite":"posped","poiType":"company","poiName":"Posped","secret":false},"geometry":{"type":"Point","coordinates":[4.364528000948091,51.87902532765985]}},{"type":"Feature","properties":{"type":"poi","sprite":"cnp","poiType":"company","poiName":"CNP","secret":false},"geometry":{"type":"Point","coordinates":[3.8205357124561643,51.866922874909264]}},{"type":"Feature","properties":{"type":"poi","sprite":"eurogoodies","poiType":"company","poiName":"EuroGoodies","secret":false},"geometry":{"type":"Point","coordinates":[3.893437582638951,49.070536821410535]}},{"type":"Feature","properties":{"type":"poi","sprite":"kaarfor","poiType":"company","poiName":"Kaarfor","secret":false},"geometry":{"type":"Point","coordinates":[3.855640772182752,49.08232980854784]}},{"type":"Feature","properties":{"type":"poi","sprite":"fle","poiType":"company","poiName":"FLE","secret":false},"geometry":{"type":"Point","coordinates":[2.8778829657686833,49.26220020021475]}},{"type":"Feature","properties":{"type":"poi","sprite":"kaarfor","poiType":"company","poiName":"Kaarfor","secret":false},"geometry":{"type":"Point","coordinates":[4.42363644371123,45.98856975183238]}},{"type":"Feature","properties":{"type":"poi","sprite":"batisse_hs","poiType":"company","poiName":"Bâtisse","secret":false},"geometry":{"type":"Point","coordinates":[4.5329407657065515,45.95510387312866]}},{"type":"Feature","properties":{"type":"poi","sprite":"tradeaux","poiType":"company","poiName":"Tradeaux","secret":false},"geometry":{"type":"Point","coordinates":[2.813949738792127,50.504871340537726]}},{"type":"Feature","properties":{"type":"poi","sprite":"eurogoodies","poiType":"company","poiName":"EuroGoodies","secret":false},"geometry":{"type":"Point","coordinates":[2.7963741343742226,50.48960434720778]}},{"type":"Feature","properties":{"type":"poi","sprite":"trameri","poiType":"company","poiName":"Trameri","secret":false},"geometry":{"type":"Point","coordinates":[2.8761408392199956,50.50801365081328]}},{"type":"Feature","properties":{"type":"poi","sprite":"tradeaux","poiType":"company","poiName":"Tradeaux","secret":false},"geometry":{"type":"Point","coordinates":[2.5571478558822527,49.197242772262875]}},{"type":"Feature","properties":{"type":"poi","sprite":"bhv","poiType":"company","poiName":"BHV","secret":false},"geometry":{"type":"Point","coordinates":[2.404013554931037,49.28611698379074]}},{"type":"Feature","properties":{"type":"poi","sprite":"ika_bohag","poiType":"company","poiName":"Ika Bohag","secret":false},"geometry":{"type":"Point","coordinates":[2.7448198125922563,49.11997571762871]}},{"type":"Feature","properties":{"type":"poi","sprite":"batisse_hs","poiType":"company","poiName":"Bâtisse","secret":false},"geometry":{"type":"Point","coordinates":[2.2454178742015887,48.9695957553958]}},{"type":"Feature","properties":{"type":"poi","sprite":"lkwlog","poiType":"company","poiName":"LkwLog GmbH","secret":false},"geometry":{"type":"Point","coordinates":[1.7321528104855448,50.83722779070364]}},{"type":"Feature","properties":{"type":"poi","sprite":"stokes","poiType":"company","poiName":"Stokes","secret":false},"geometry":{"type":"Point","coordinates":[1.7830621456216844,50.84731521380164]}},{"type":"Feature","properties":{"type":"poi","sprite":"nbfc","poiType":"company","poiName":"NBFC","secret":false},"geometry":{"type":"Point","coordinates":[1.6872106330773597,50.83745628162726]}},{"type":"Feature","properties":{"type":"poi","sprite":"tree_et","poiType":"company","poiName":"Tree-ET","secret":false},"geometry":{"type":"Point","coordinates":[1.047714157677452,52.041076824492585]}},{"type":"Feature","properties":{"type":"poi","sprite":"tradeaux","poiType":"company","poiName":"Tradeaux","secret":false},"geometry":{"type":"Point","coordinates":[1.0921589029111518,51.92257618891296]}},{"type":"Feature","properties":{"type":"poi","sprite":"lkwlog","poiType":"company","poiName":"LkwLog GmbH","secret":false},"geometry":{"type":"Point","coordinates":[1.1266261292223598,51.885099350001525]}},{"type":"Feature","properties":{"type":"poi","sprite":"voitureux","poiType":"company","poiName":"Voitureux","secret":false},"geometry":{"type":"Point","coordinates":[1.636549270892493,49.06377525578525]}},{"type":"Feature","properties":{"type":"poi","sprite":"lisette_log","poiType":"company","poiName":"Lisette Logistics","secret":false},"geometry":{"type":"Point","coordinates":[1.6961438777296391,49.06943701799511]}},{"type":"Feature","properties":{"type":"poi","sprite":"boisserie","poiType":"company","poiName":"BOISSERIE J-P","secret":false},"geometry":{"type":"Point","coordinates":[0.8678593047265836,48.14396558817339]}},{"type":"Feature","properties":{"type":"poi","sprite":"eurogoodies","poiType":"company","poiName":"EuroGoodies","secret":false},"geometry":{"type":"Point","coordinates":[0.9976401297279334,51.06934919248372]}},{"type":"Feature","properties":{"type":"poi","sprite":"lkwlog","poiType":"company","poiName":"LkwLog GmbH","secret":false},"geometry":{"type":"Point","coordinates":[1.0126537386532324,51.08959649011354]}},{"type":"Feature","properties":{"type":"poi","sprite":"euroacres","poiType":"company","poiName":"EuroAcres","secret":false},"geometry":{"type":"Point","coordinates":[0.983512492205615,51.18731314510283]}},{"type":"Feature","properties":{"type":"poi","sprite":"nbfc","poiType":"company","poiName":"NBFC","secret":false},"geometry":{"type":"Point","coordinates":[-0.44105472550375474,51.43326823873609]}},{"type":"Feature","properties":{"type":"poi","sprite":"posped","poiType":"company","poiName":"Posped","secret":false},"geometry":{"type":"Point","coordinates":[-0.41286688756079293,51.47694972694521]}},{"type":"Feature","properties":{"type":"poi","sprite":"sanbuilders","poiType":"company","poiName":"Sanbuilders","secret":false},"geometry":{"type":"Point","coordinates":[-0.48426583457392186,51.41474299198482]}},{"type":"Feature","properties":{"type":"poi","sprite":"volvo_dlr","poiType":"company","poiName":"Volvo","secret":false},"geometry":{"type":"Point","coordinates":[-0.48799343872729145,51.45164394281282]}},{"type":"Feature","properties":{"type":"poi","sprite":"sellplan","poiType":"company","poiName":"SellPlan","secret":false},"geometry":{"type":"Point","coordinates":[-0.4564904265581142,51.45668855126016]}},{"type":"Feature","properties":{"type":"poi","sprite":"euroacres","poiType":"company","poiName":"EuroAcres","secret":false},"geometry":{"type":"Point","coordinates":[-0.06234475446111207,52.0660650476667]}},{"type":"Feature","properties":{"type":"poi","sprite":"transinet","poiType":"company","poiName":"TransiNet","secret":false},"geometry":{"type":"Point","coordinates":[-0.15626031244812918,52.10550276259667]}},{"type":"Feature","properties":{"type":"poi","sprite":"kaarfor","poiType":"company","poiName":"Kaarfor","secret":false},"geometry":{"type":"Point","coordinates":[-0.16947462335646918,52.11495091779391]}},{"type":"Feature","properties":{"type":"poi","sprite":"wgcc","poiType":"company","poiName":"WGCC","secret":false},"geometry":{"type":"Point","coordinates":[-0.5046144200775077,53.45275700163382]}},{"type":"Feature","properties":{"type":"poi","sprite":"tradeaux","poiType":"company","poiName":"Tradeaux","secret":false},"geometry":{"type":"Point","coordinates":[-0.5668372437755781,53.45379023542034]}},{"type":"Feature","properties":{"type":"poi","sprite":"eurogoodies","poiType":"company","poiName":"EuroGoodies","secret":false},"geometry":{"type":"Point","coordinates":[-0.4974366968711833,53.48403927617078]}},{"type":"Feature","properties":{"type":"poi","sprite":"sanbuilders","poiType":"company","poiName":"Sanbuilders","secret":false},"geometry":{"type":"Point","coordinates":[-1.844754178523272,54.91870579091318]}},{"type":"Feature","properties":{"type":"poi","sprite":"eurogoodies","poiType":"company","poiName":"EuroGoodies","secret":false},"geometry":{"type":"Point","coordinates":[-1.8307960398901757,54.93187969810501]}},{"type":"Feature","properties":{"type":"poi","sprite":"sellplan","poiType":"company","poiName":"SellPlan","secret":false},"geometry":{"type":"Point","coordinates":[-1.8616285650240236,54.944217486128785]}},{"type":"Feature","properties":{"type":"poi","sprite":"stokes","poiType":"company","poiName":"Stokes","secret":false},"geometry":{"type":"Point","coordinates":[-2.495213349284848,57.04436919464142]}},{"type":"Feature","properties":{"type":"poi","sprite":"nbfc","poiType":"company","poiName":"NBFC","secret":false},"geometry":{"type":"Point","coordinates":[-2.533794554162024,57.05973184465088]}},{"type":"Feature","properties":{"type":"poi","sprite":"tree_et","poiType":"company","poiName":"Tree-ET","secret":false},"geometry":{"type":"Point","coordinates":[-2.7426414399602916,57.0858036058684]}},{"type":"Feature","properties":{"type":"poi","sprite":"transinet","poiType":"company","poiName":"TransiNet","secret":false},"geometry":{"type":"Point","coordinates":[-1.8988677870906467,53.28511536107424]}},{"type":"Feature","properties":{"type":"poi","sprite":"sellplan","poiType":"company","poiName":"SellPlan","secret":false},"geometry":{"type":"Point","coordinates":[-1.966955348692193,53.317735705356675]}},{"type":"Feature","properties":{"type":"poi","sprite":"quarry","poiType":"company","poiName":"Steinbruch","secret":false},"geometry":{"type":"Point","coordinates":[-2.0016222320904546,53.11453905774172]}},{"type":"Feature","properties":{"type":"poi","sprite":"itcc","poiType":"company","poiName":"ITCC","secret":false},"geometry":{"type":"Point","coordinates":[-1.9656394021164023,53.2872654300702]}},{"type":"Feature","properties":{"type":"poi","sprite":"sellplan","poiType":"company","poiName":"SellPlan","secret":false},"geometry":{"type":"Point","coordinates":[-1.6936062251897879,50.708291519211045]}},{"type":"Feature","properties":{"type":"poi","sprite":"transinet","poiType":"company","poiName":"TransiNet","secret":false},"geometry":{"type":"Point","coordinates":[-1.7275389827076253,50.72478642293441]}},{"type":"Feature","properties":{"type":"poi","sprite":"tree_et","poiType":"company","poiName":"Tree-ET","secret":false},"geometry":{"type":"Point","coordinates":[-1.8797388511105058,50.76391039350498]}},{"type":"Feature","properties":{"type":"poi","sprite":"tree_et","poiType":"company","poiName":"Tree-ET","secret":false},"geometry":{"type":"Point","coordinates":[-2.1834828940447615,52.346095107022656]}},{"type":"Feature","properties":{"type":"poi","sprite":"posped","poiType":"company","poiName":"Posped","secret":false},"geometry":{"type":"Point","coordinates":[-2.3313048703072683,52.40934712516027]}},{"type":"Feature","properties":{"type":"poi","sprite":"bcp","poiType":"company","poiName":"BCP","secret":false},"geometry":{"type":"Point","coordinates":[-2.339419348142488,52.3539761256722]}},{"type":"Feature","properties":{"type":"poi","sprite":"sanbuilders","poiType":"company","poiName":"Sanbuilders","secret":false},"geometry":{"type":"Point","coordinates":[-2.3477684293279633,52.382079515880406]}},{"type":"Feature","properties":{"type":"poi","sprite":"scania_dlr","poiType":"company","poiName":"Scania","secret":false},"geometry":{"type":"Point","coordinates":[-2.6111530396631304,53.35213561783921]}},{"type":"Feature","properties":{"type":"poi","sprite":"fcp","poiType":"company","poiName":"FCP","secret":false},"geometry":{"type":"Point","coordinates":[-2.5438367101964143,53.3705356432698]}},{"type":"Feature","properties":{"type":"poi","sprite":"wgcc","poiType":"company","poiName":"WGCC","secret":false},"geometry":{"type":"Point","coordinates":[-2.574573520357838,53.35377137959068]}},{"type":"Feature","properties":{"type":"poi","sprite":"lkwlog","poiType":"company","poiName":"LkwLog GmbH","secret":false},"geometry":{"type":"Point","coordinates":[-2.545075155415742,53.338073059405986]}},{"type":"Feature","properties":{"type":"poi","sprite":"tree_et","poiType":"company","poiName":"Tree-ET","secret":false},"geometry":{"type":"Point","coordinates":[-2.7469271814535197,53.373156758437474]}},{"type":"Feature","properties":{"type":"poi","sprite":"euroacres","poiType":"company","poiName":"EuroAcres","secret":false},"geometry":{"type":"Point","coordinates":[-3.1649979021612547,54.81334347436057]}},{"type":"Feature","properties":{"type":"poi","sprite":"posped","poiType":"company","poiName":"Posped","secret":false},"geometry":{"type":"Point","coordinates":[-3.265819612782437,54.882447338672975]}},{"type":"Feature","properties":{"type":"poi","sprite":"trameri","poiType":"company","poiName":"Trameri","secret":false},"geometry":{"type":"Point","coordinates":[-3.299152879094927,54.86159658331014]}},{"type":"Feature","properties":{"type":"poi","sprite":"sanbuilders","poiType":"company","poiName":"Sanbuilders","secret":false},"geometry":{"type":"Point","coordinates":[-3.5419822730787667,55.83215992832154]}},{"type":"Feature","properties":{"type":"poi","sprite":"eurogoodies","poiType":"company","poiName":"EuroGoodies","secret":false},"geometry":{"type":"Point","coordinates":[-3.5694648792107295,55.81075862976219]}},{"type":"Feature","properties":{"type":"poi","sprite":"kaarfor","poiType":"company","poiName":"Kaarfor","secret":false},"geometry":{"type":"Point","coordinates":[-3.513141550993416,55.810343521551715]}},{"type":"Feature","properties":{"type":"poi","sprite":"euroacres","poiType":"company","poiName":"EuroAcres","secret":false},"geometry":{"type":"Point","coordinates":[-3.1714244426766784,53.26989118724858]}},{"type":"Feature","properties":{"type":"poi","sprite":"trameri","poiType":"company","poiName":"Trameri","secret":false},"geometry":{"type":"Point","coordinates":[-3.2827388072425436,53.373297357417094]}},{"type":"Feature","properties":{"type":"poi","sprite":"nbfc","poiType":"company","poiName":"NBFC","secret":false},"geometry":{"type":"Point","coordinates":[-3.248110566609582,53.376776171962504]}},{"type":"Feature","properties":{"type":"poi","sprite":"eurogoodies","poiType":"company","poiName":"EuroGoodies","secret":false},"geometry":{"type":"Point","coordinates":[-3.201910668342012,53.349413124175996]}},{"type":"Feature","properties":{"type":"poi","sprite":"daf_dlr","poiType":"company","poiName":"daf_dlr","secret":false},"geometry":{"type":"Point","coordinates":[-4.797949904253624,55.859763878938104]}},{"type":"Feature","properties":{"type":"poi","sprite":"wgcc","poiType":"company","poiName":"WGCC","secret":false},"geometry":{"type":"Point","coordinates":[-4.762583526496888,55.802457180568446]}},{"type":"Feature","properties":{"type":"poi","sprite":"itcc","poiType":"company","poiName":"ITCC","secret":false},"geometry":{"type":"Point","coordinates":[-4.812130542866926,55.796411479903405]}},{"type":"Feature","properties":{"type":"poi","sprite":"eurogoodies","poiType":"company","poiName":"EuroGoodies","secret":false},"geometry":{"type":"Point","coordinates":[-4.766546447556786,55.8393055932577]}},{"type":"Feature","properties":{"type":"poi","sprite":"quarry","poiType":"company","poiName":"Steinbruch","secret":false},"geometry":{"type":"Point","coordinates":[-4.919335764634361,56.246703097260415]}},{"type":"Feature","properties":{"type":"poi","sprite":"eurogoodies","poiType":"company","poiName":"EuroGoodies","secret":false},"geometry":{"type":"Point","coordinates":[-3.6550966496302237,51.36111466491087]}},{"type":"Feature","properties":{"type":"poi","sprite":"stokes","poiType":"company","poiName":"Stokes","secret":false},"geometry":{"type":"Point","coordinates":[-3.6413684892049085,51.385898014311486]}},{"type":"Feature","properties":{"type":"poi","sprite":"quarry","poiType":"company","poiName":"Steinbruch","secret":false},"geometry":{"type":"Point","coordinates":[-3.5793381195600276,51.70722235422421]}},{"type":"Feature","properties":{"type":"poi","sprite":"trameri","poiType":"company","poiName":"Trameri","secret":false},"geometry":{"type":"Point","coordinates":[-4.503969504108567,50.30323949936287]}},{"type":"Feature","properties":{"type":"poi","sprite":"stokes","poiType":"company","poiName":"Stokes","secret":false},"geometry":{"type":"Point","coordinates":[-4.4572896883849955,50.30528081935606]}},{"type":"Feature","properties":{"type":"poi","sprite":"euroacres","poiType":"company","poiName":"EuroAcres","secret":false},"geometry":{"type":"Point","coordinates":[-4.500298532287112,50.3731824703207]}},{"type":"Feature","properties":{"type":"poi","sprite":"trameri","poiType":"company","poiName":"Trameri","secret":false},"geometry":{"type":"Point","coordinates":[-4.322013289622941,51.581774246824956]}},{"type":"Feature","properties":{"type":"poi","sprite":"posped","poiType":"company","poiName":"Posped","secret":false},"geometry":{"type":"Point","coordinates":[-4.344932501478863,51.5907502604514]}},{"type":"Feature","properties":{"type":"poi","sprite":"kaarfor","poiType":"company","poiName":"Kaarfor","secret":false},"geometry":{"type":"Point","coordinates":[-4.395229187537739,51.55785320010386]}},{"type":"Feature","properties":{"type":"poi","sprite":"euroacres","poiType":"company","poiName":"EuroAcres","secret":false},"geometry":{"type":"Point","coordinates":[-4.506919336174266,51.619430615714094]}},{"type":"Feature","properties":{"type":"poi","sprite":"eurogoodies","poiType":"company","poiName":"EuroGoodies","secret":false},"geometry":{"type":"Point","coordinates":[-4.533220748296846,50.270403339501996]}}]}